ID;FullName;global_id;ShortName;RegisterNumber;LegalAddress;country;city;street;house;ChiefPosition;ChiefName;WebSite;Email;INN;OGRN
1;УЧРЕЖДЕНИЕ «МОСКОВСКИЙ ФИЗКУЛЬТУРНО-СПОРТИВНЫЙ КЛУБ «ЮНЫЙ ДИНАМОВЕЦ»;63809221;«МФСК «ЮНЫЙ ДИНАМОВЕЦ»;260813;Ленинградский проспект, дом 36, строение 21;Россия;Москва;Ленинградский проспект;дом 36, строение 21;генеральный директор;Долгушев Анатолий Петрович;;;7714596110;1,05775E+12
2;РЕГИОНАЛЬНАЯ ОБЩЕСТВЕННАЯ ОРГАНИЗАЦИЯ «ФЕДЕРАЦИЯ СКЕЙТБОРДИНГА»;63809222;«Федерация скейтбординга Москвы»;260721;Краснобогатырская улица, дом 44, корпус 1;Россия;Москва;Краснобогатырская улица;дом 44, корпус 1;президент;Чаплеевский Роман Павлович;;;7718748596;1,1378E+12
3;Автономная некоммерческая организация «Ассоциация «Здоровая нация»;63809223;АНО «Ассоциация «Здоровая нация»;259031;Фурманный переулок, дом 10, строение 1;Россия;Москва;Фурманный переулок;дом 10, строение 1;генеральный директор;Папсуев Матвей Александрович;;;7701512426;1,03774E+12
4;АВТОНОМНАЯ НЕКОММЕРЧЕСКАЯ ОРГАНИЗАЦИЯ ПО ПРОВЕДЕНИЮ СПОРТИВНЫХ И МАССОВЫХ МЕРОПРИЯТИЙ «ВЫДВИЖЕНИЕ»;63809224;АНО «Выдвижение»;219740;Новинский бульвар, дом 18, корпус 1;Россия;Москва;Новинский бульвар;дом 18, корпус 1;исполнительный директор;Сиваков Олег Петрович;;;7704505233;1,03774E+12
5;АВТОНОМНАЯ НЕКОММЕРЧЕСКАЯ ОРГАНИЗАЦИЯ «ДИРЕКЦИЯ СПОРТИВНЫХ И СОЦИАЛЬНЫХ ПРОГРАММ ПРАВООХРАНИТЕЛЬНЫХ ОРГАНОВ»;63809225;АНО «Дирекция спортивных программ правоохранительных органов»;260012;Рязанский проспект, дом 16, строение 4;Россия;Москва;Рязанский проспект;дом 16, строение 4;генеральный директор;Тихонюк Виктор Дмитриевич;;;7721513869;1,0478E+12
6;АВТОНОМНАЯ НЕКОММЕРЧЕСКАЯ ОРГАНИЗАЦИЯ «КОНТИНЕНТАЛЬНАЯ ХОККЕЙНАЯ ЛИГА»;63809226;АНО «Континентальная хоккейная лига»;260033;Овчинниковская набережная, дом 20, строение 2;Россия;Москва;Овчинниковская набережная;дом 20, строение 2;управляющий директор;Кобылянский Георгий Викторович;;;7707330905;1,0878E+12
7;Автономная некоммерческая организация «Лига школьного и дворового спорта»;63809227;АНО «Лига школьного и дворового спорта»;219738;Скаковая улица, дом 32, строение 2;Россия;Москва;Скаковая улица;дом 32, строение 2;исполнительный директор;Сосков Борис Андреевич;;;7714400198;1,1178E+12
8;Автономная некоммерческая организация «Национальный центр корпоративного спорта»;63809228;АНО «Национальный центр корпоративного спорта»;259794;улица Лужники, дом 24, строение 9;Россия;Москва;улица Лужники;дом 24, строение 9;директор;Джагацпанян Даниил Михайлович;;;7704280237;1,1278E+12
9;АВТОНОМНАЯ НЕКОММЕРЧЕСКАЯ ОРГАНИЗАЦИЯ «РАЗВИТИЕ СТУДЕНЧЕСКОГО И МОЛОДЕЖНОГО СПОРТА»;63809229;АНО «Развитие студенческого и молодежного спорта»;259026;улица Стромынка, дом 19, корпус 2;Россия;Москва;улица Стромынка;дом 19, корпус 2;генеральный директор;Кинаш Алексей Алексеевич;;;7721490555;1,1278E+12
10;Автономная некоммерческая организация «Спортивно - досуговый центр «БАРС»;63809230;АНО «СДЦ «Барс»;259587;Авиамоторная улица, дом 50, корпус 2;Россия;Москва;Авиамоторная улица;дом 50, корпус 2;директор;Кизимов Юрий Александрович;;;5027144256;1,085E+12
11;АВТОНОМНАЯ НЕКОММЕРЧЕСКАЯ ОРГАНИЗАЦИЯ «СЕМЕЙНЫЙ КЛУБ «АДМИРАЛЪ»;63809231;АНО «Семейный клуб «Адмиралъ»;259132;Чечерский проезд, дом 120;Россия;Москва;Чечерский проезд;дом 120;генеральный директор;Пермякова Юлия Геннадьевна;;;7727497564;1,1278E+12
12;Автономная некоммерческая организация «Спортивный клуб «БиЦ»;63809232;АНО «СК «БиЦ»;259474;Каширское шоссе, дом 33, корпус 1;Россия;Москва;Каширское шоссе;дом 33, корпус 1;президент;Курочкин Виталий Михайлович;;;7737105216;1,03774E+12
13;АВТОНОМНАЯ НЕКОММЕРЧЕСКАЯ ОРГАНИЗАЦИЯ «СПОРТИВНЫЙ КЛУБ ЮЛИИ БАРСУКОВОЙ»;63809233;АНО «СК Юлии Барсуковой»;258989;Советская улица, дом 7;Россия;Москва;Советская улица;дом 7;директор;Паньков Александр Ильич;;;7731397690;1,1378E+12
14;АВТОНОМНАЯ НЕКОММЕРЧЕСКАЯ ОРГАНИЗАЦИЯ СОДЕЙСТВИЯ РАЗВИТИЮ ФИЗКУЛЬТУРЫ И СПОРТА «СПОРТ И ФИЗИЧЕСКАЯ КУЛЬТУРА ДЛЯ ВСЕХ»;63809234;АНО «Спорт и ФК для всех»;259012;5-й Войковский проезд, дом 6;Россия;Москва;5-й Войковский проезд;дом 6;председатель правления;Писков Юрий Владимирович;;;7743110863;1,1478E+12
15;АВТОНОМНАЯ НЕКОММЕРЧЕСКАЯ ОРГАНИЗАЦИЯ «СПОРТИВНЫЙ ЦЕНТР ДОПОЛНИТЕЛЬНОГО ПРОФЕССИОНАЛЬНОГО ОБРАЗОВАНИЯ «АЛМАЗНЫЙ ЛЁД»;63809235;АНО «СЦДПО «Алмазный лёд»;259355;Краснодарская улица, дом 4/117;Россия;Москва;Краснодарская улица;дом 4/117;генеральный директор;Шкулева Екатерина Владимировна;;;7723210757;1,1278E+12
16;АВТОНОМНАЯ НЕКОММЕРЧЕСКАЯ ОРГАНИЗАЦИЯ ФИЗКУЛЬТУРНО-ОЗДОРОВИТЕЛЬНЫЙ КЛУБ ПОДРОСТКОВ И МОЛОДЕЖИ «СТИМУЛ»;63809236;АНО «Физкультурно-оздоровительный клуб подростков и молодежи «Стимул»;259476;Серебрянический переулок, дом 9, строение 1;Россия;Москва;Серебрянический переулок;дом 9, строение 1;директор;Беловецкая Екатерина Юрьевна;;;7709335578;1,03774E+12
17;АВТОНОМНАЯ НЕКОММЕРЧЕСКАЯ ОРГАНИЗАЦИЯ ЦЕНТР СОДЕЙСТВИЯ ГАРМОНИЗАЦИИ ОТНОШЕНИЙ СРЕДИ ФУТБОЛЬНЫХ БОЛЕЛЬЩИКОВ «ФУТБОЛЬНОЕ БРАТСТВО»;63809237;АНО «Центр содействия гармонии отношений среди футбольных болельщиков «Футбольное братство»;261900;Волоколамское шоссе, дом 108;Россия;Москва;Волоколамское шоссе;дом 108;генеральный директор;Сигаев Заур Владимирович;;;7733189751;1,1577E+12
18;АНО «Центральный спортивный клуб финансовых органов»;63809238;АНО «Центральный спортивный клуб финансовых органов»;261902;Лесная улица, дом 6;Россия;Москва;Лесная улица;дом 6;председатель;Шабуневич Олег Васильевич;;;7710490401;1,1577E+12
19;АВТОНОМНАЯ НЕКОММЕРЧЕСКАЯ ОРГАНИЗАЦИЯ ДОПОЛНИТЕЛЬНОГО ОБРАЗОВАНИЯ «ЦЕНТР СПОРТИВНОГО РАЗВИТИЯ ИМЕНИ ОЛИМПИЙСКИХ ЧЕМПИОНОК ЕЛЕНЫ ШАЛАМОВОЙ И МАРИИ НЕТЕСОВОЙ»;63809239;АНО ДО «ЦСР имени олимпийских чемпионок Елены Шаламовой и Марии Нетесовой»;259446;Родионовская улица, дом 10, корпус 1;Россия;Москва;Родионовская улица;дом 10, корпус 1;директор;Шаламова Елена Владимировна;;;7733191493;1,1378E+12
20;АВТОНОМНАЯ НЕКОММЕРЧЕСКАЯ ОРГАНИЗАЦИЯ ПО ОРГАНИЗАЦИИ И ПРОВЕДЕНИЮ СПОРТИВНО-МАССОВЫХ МЕРОПРИЯТИЙ «ПОД МОСТОМ»;63809240;АНО по организации и проведению спортивных массовых мероприятий «Под Мостом»;259004;улица Лужники, дом 24, строение 2;Россия;Москва;улица Лужники;дом 24, строение 2;генеральный директор;Грунис Сергей Леонидович;;;7704279545;1,1278E+12
21;Автономная некоммерческая организация Содействия развитию физической культуры и спорта «ЗДОРОВЬЕ.ФИЗКУЛЬТУРА.СПОРТ»;63809241;АНО содействия развитию ФКиС «Здоровье. Физкультура. Спорт»;259011;Малый Сухаревский переулок, дом 9, строение 1;Россия;Москва;Малый Сухаревский переулок;дом 9, строение 1;директор;Мякишев Константин Юрьевич;;;7702372299;1,1078E+12
22;Автономная некоммерческая организация, содействующая развитию физической культуры, спорта и здорового образа жизни «Спорт для Всех»;63809242;АНО содействия развитию ФКиС «Спорт для всех»;259463;1-й Красносельский переулок, дом 3;Россия;Москва;1-й Красносельский переулок;дом 3;директор;Иванов Александр Владимирович;;;7708240771;1,1278E+12
23;Автономная некоммерческая организация содействия развитию физкультуры и спорта «Спортивная столица»;63809243;АНО содействия развитию ФКиС «Спортивная столица»;259461;Архангельский переулок, дом 9, строение 1;Россия;Москва;Архангельский переулок;дом 9, строение 1;генеральный директор;Орлов Георгий Владимирович;;;7701168117;1,1278E+12
24;АВТОНОМНАЯ НЕКОММЕРЧЕСКАЯ ОРГАНИЗАЦИЯ ЦЕНТР ПРОВЕДЕНИЯ СПОРТИВНЫХ МЕРОПРИЯТИЙ «МОСКОВСКИЙ МАРАФОН»;63809244;АНО ЦПСМ «Московский марафон»;259006;улица Лужники, дом 24, корпус 9;Россия;Москва;улица Лужники;дом 24, корпус 9;директор;Зубко Анатолий Борисович;;;7704281590;1,1378E+12
25;Автономная некоммерческая спортивно-образовательная организация РОСТО «Московский городской автомотоклуб»;63809245;АНСОО РОСТО «Московский городской автомотоклуб»;259483;Мясницкая улица, дом 21/8, корпус 7;Россия;Москва;Мясницкая улица;дом 21/8, корпус 7;начальник;Твердошинский Анатолий Георгиевич;;;7708098620;1,03774E+12
26;АППАРАТ ГОСУДАРСТВЕННОЙ ДУМЫ ФЕДЕРАЛЬНОГО СОБРАНИЯ РОССИЙСКОЙ ФЕДЕРАЦИИ;63809246;Аппарат Государственной думы Федерального собрания Российской Федерации;259662;улица Охотный Ряд, дом 1;Россия;Москва;улица Охотный Ряд;дом 1;первый заместитель руководителя аппарата;Копейкин Михаил Юрьевич;;;7707210781;1,0377E+12
27;АССОЦИАЦИЯ ОРГАНИЗАТОРОВ КУЛЬТУРНО-МАССОВЫХ И СПОРТИВНО-ЗРЕЛИЩНЫХ МЕРОПРИЯТИЙ «НОВАЯ ЛИГА»;63809247;Ассоциация «Новая Лига»;219735;Смоленская улица, дом 7;Россия;Москва;Смоленская улица;дом 7;президент;Селяметова Екатерина Викторовна;;;7704278862;1,1178E+12
28;Ассоциация общероссийских общественных организаций «Ассоциация лыжных видов спорта России»;63809248;Ассоциация общероссийских общественных организаций «Ассоциация лыжных видов спорта России»;261895;Лужнецкая набережная, дом 8;Россия;Москва;Лужнецкая набережная;дом 8;президент;Бокарев Андрей Рэмович;;;7704271271;1,0577E+12
29;Ассоциация спортивных клубов по художественной гимнастике;63809249;Ассоциация спортивных клубов по художественной гимнастике;259339;Лужнецкая набережная, дом 8;Россия;Москва;Лужнецкая набережная;дом 8;президент;Шматко Елена Николаевна;;;7704278929;1,1178E+12
30;Благотворительный оздоровительный фонд «Клуб «Приключение»;63809250;Благотворительный оздоровительный фонд «Клуб «Приключение»;259010;улица Чаплыгина, дом 15, корпус 5;Россия;Москва;улица Чаплыгина;дом 15, корпус 5;директор;Шпаро Дмитрий Игоревич;;;7702054137;1,02774E+12
31;Благотворительный Фонд социальной поддержки граждан «Планета Добра»;63809251;Благотворительный Фонд социальной поддержки граждан «Планета Добра»;259034;Большая Филёвская улица, дом 63;Россия;Москва;Большая Филёвская улица;дом 63;генеральный директор;Новиков Владимир Анатольевич;;;7731022718;1,1078E+12
32;Общероссийская общественная организация инвалидов «Всероссийское общество глухих»;63809252;Всероссийское общество глухих (ВОГ);220245;улица 1905 года, дом 10А;Россия;Москва;улица 1905 года;дом 10А;президент;Рухледев Валерий Никитич;;;7703027707;1,02774E+12
33;ГОСУДАРСТВЕННОЕ АВТОНОМНОЕ УЧРЕЖДЕНИЕ ГОРОДА МОСКВЫ «СПОРТИВНАЯ ШКОЛА «МОСКОВСКИЙ ЦЕНТР БОЕВЫХ ИСКУССТВ» ДЕПАРТАМЕНТА ФИЗИЧЕСКОЙ КУЛЬТУРЫ И СПОРТА ГОРОДА МОСКВЫ;63809253;ГАУ «Спортивная школа «МЦБИ» Москомспорта;219106;Варшавское шоссе, дом 118, корпус 1;Россия;Москва;Варшавское шоссе;дом 118, корпус 1;директор;Тимофеев Игорь Николаевич;mcbi.ru;timofeev@mcbi.ru;7726633285;1,09775E+12
34;ГОСУДАРСТВЕННОЕ БЮДЖЕТНОЕ ОБЩЕОБРАЗОВАТЕЛЬНОЕ УЧРЕЖДЕНИЕ ГОРОДА МОСКВЫ «ЦЕНТР СПОРТА И ОБРАЗОВАНИЯ «МОСКОВСКАЯ ЭКСПЕРИМЕНТАЛЬНАЯ ШКОЛА» ДЕПАРТАМЕНТА ФИЗИЧЕСКОЙ КУЛЬТУРЫ И СПОРТА ГОРОДА МОСКВЫ;63809254;ГБОУ «Центр спорта и образования «МЭШ» Москомспорта;219108;Херсонская улица, дом 30, корпус 2;Россия;Москва;Херсонская улица;дом 30, корпус 2;директор;Куприянова Татьяна Викторовна;www.wushu-school.ru;mesh@mossport.ru;7727038056;1,02774E+12
35;ГОСУДАРСТВЕННОЕ БЮДЖЕТНОЕ ОБЩЕОБРАЗОВАТЕЛЬНОЕ УЧРЕЖДЕНИЕ ГОРОДА МОСКВЫ «ЦЕНТР СПОРТА И ОБРАЗОВАНИЯ «ОЛИМП» ДЕПАРТАМЕНТА ФИЗИЧЕСКОЙ КУЛЬТУРЫ И СПОРТА ГОРОДА МОСКВЫ;63809255;ГБОУ «Центр спорта и образования «Олимп» Москомспорта;219109;улица Удальцова, дом 67;Россия;Москва;улица Удальцова;дом 67;директор;Енюшин Виталий Юрьевич;www.olimp-co.ru;Olimp_CO@list.ru;7729193258;1,03774E+12
36;ГОСУДАРСТВЕННОЕ БЮДЖЕТНОЕ ОБЩЕОБРАЗОВАТЕЛЬНОЕ УЧРЕЖДЕНИЕ ГОРОДА МОСКВЫ «ЦЕНТР СПОРТА И ОБРАЗОВАНИЯ «ЧЕРТАНОВО» ДЕПАРТАМЕНТА ФИЗИЧЕСКОЙ КУЛЬТУРЫ И СПОРТА ГОРОДА МОСКВЫ;63809256;ГБОУ «Центр спорта и образования «Чертаново» Москомспорта;207054;Чертановская улица, дом 7, корпус 3;Россия;Москва;Чертановская улица;дом 7, корпус 3;директор;Ларин Николай Юрьевич;www.chertanovo-football.ru;chertanovo@mossport.ru;7726072209;1,02774E+12
37;ГОСУДАРСТВЕННОЕ БЮДЖЕТНОЕ ОБРАЗОВАТЕЛЬНОЕ УЧРЕЖДЕНИЕ ДОПОЛНИТЕЛЬНОГО ПРОФЕССИОНАЛЬНОГО ОБРАЗОВАНИЯ ГОРОДА МОСКВЫ «ЦЕНТР ВОЕННО-ПАТРИОТИЧЕСКОГО И ГРАЖДАНСКОГО ВОСПИТАНИЯ»;63809257;ГБОУ г. Москвы центр военно-патриотического и гражданского воспитания;254891;улица Щепкина, дом 38, корпус 1;Россия;Москва;улица Щепкина;дом 38, корпус 1;директор;Мельниченко Игорь Иннокентьевич;;;7719210793;1,0377E+12
38;ГОСУДАРСТВЕННОЕ БЮДЖЕТНОЕ ПРОФЕССИОНАЛЬНОЕ ОБРАЗОВАТЕЛЬНОЕ УЧРЕЖДЕНИЕ ГОРОДА МОСКВЫ «КОЛЛЕДЖ ФИЗИЧЕСКОЙ КУЛЬТУРЫ И СПОРТА «СПАРТА» ДЕПАРТАМЕНТА ФИЗИЧЕСКОЙ КУЛЬТУРЫ И СПОРТА ГОРОДА МОСКВЫ;63809258;ГБПОУ «КФКС «Спарта» Москомспорта;207053;улица Маршала Тимошенко, дом 36, корпус 2;Россия;Москва;улица Маршала Тимошенко;дом 36, корпус 2;директор;Глушков Алексей Юрьевич;www.спарта-кфкс.рф;sparta@mossport.ru;7731034752;1,03774E+12
39;ГОСУДАРСТВЕННОЕ БЮДЖЕТНОЕ ПРОФЕССИОНАЛЬНОЕ ОБРАЗОВАТЕЛЬНОЕ УЧРЕЖДЕНИЕ ГОРОДА МОСКВЫ «МОСКОВСКОЕ СРЕДНЕЕ СПЕЦИАЛЬНОЕ УЧИЛИЩЕ ОЛИМПИЙСКОГО РЕЗЕРВА № 1 (ТЕХНИКУМ)» ДЕПАРТАМЕНТА ФИЗИЧЕСКОЙ КУЛЬТУРЫ И СПОРТА ГОРОДА МОСКВЫ;63809259;ГБПОУ «МССУОР № 1» Москомспорта;207044;16-я Парковая улица, дом 17, строение 2;Россия;Москва;16-я Парковая улица;дом 17, строение 2;директор;Мусульбес Давид Владимирович;;;7719004945;1,03772E+12
40;ГОСУДАРСТВЕННОЕ БЮДЖЕТНОЕ ПРОФЕССИОНАЛЬНОЕ ОБРАЗОВАТЕЛЬНОЕ УЧРЕЖДЕНИЕ ГОРОДА МОСКВЫ «МОСКОВСКОЕ СРЕДНЕЕ СПЕЦИАЛЬНОЕ УЧИЛИЩЕ ОЛИМПИЙСКОГО РЕЗЕРВА № 2 (КОЛЛЕДЖ)» ДЕПАРТАМЕНТА ФИЗИЧЕСКОЙ КУЛЬТУРЫ И СПОРТА ГОРОДА МОСКВЫ;63809260;ГБПОУ «МССУОР № 2» Москомспорта;207045;Малая Филёвская улица, дом 34, корпус 2;Россия;Москва;Малая Филёвская улица;дом 34, корпус 2;директор;Захаров Андрей Анатольевич;www.uor2.ru;uor2@mos.ru;7731136698;1,03774E+12
41;ГОСУДАРСТВЕННОЕ БЮДЖЕТНОЕ ПРОФЕССИОНАЛЬНОЕ ОБРАЗОВАТЕЛЬНОЕ УЧРЕЖДЕНИЕ ГОРОДА МОСКВЫ «МОСКОВСКОЕ СРЕДНЕЕ СПЕЦИАЛЬНОЕ УЧИЛИЩЕ ОЛИМПИЙСКОГО РЕЗЕРВА № 3 (ТЕХНИКУМ)» ДЕПАРТАМЕНТА ФИЗИЧЕСКОЙ КУЛЬТУРЫ И СПОРТА ГОРОДА МОСКВЫ;63809261;ГБПОУ «МССУОР № 3» Москомспорта;207046;Ткацкая улица, дом 27;Россия;Москва;Ткацкая улица;дом 27;директор;Азнавурян Карина Борисовна;uor3.ru;uor3@mossport.ru;7719064084;1,02774E+12
42;ГОСУДАРСТВЕННОЕ БЮДЖЕТНОЕ ПРОФЕССИОНАЛЬНОЕ ОБРАЗОВАТЕЛЬНОЕ УЧРЕЖДЕНИЕ ГОРОДА МОСКВЫ «МОСКОВСКОЕ СРЕДНЕЕ СПЕЦИАЛЬНОЕ УЧИЛИЩЕ ОЛИМПИЙСКОГО РЕЗЕРВА № 4 ИМЕНИ А.Я. ГОМЕЛЬСКОГО (ТЕХНИКУМ)» ДЕПАРТАМЕНТА ФИЗИЧЕСКОЙ КУЛЬТУРЫ И СПОРТА ГОРОДА МОСКВЫ;63809262;ГБПОУ «МССУОР № 4 им. А. Я. Гомельского» Москомспорта;212210;улица Лескова, дом 25А;Россия;Москва;улица Лескова;дом 25А;директор;Жмулин Александр Владимирович;www.uorgomelski.ru;uor4@mossport.ru;7715714937;5,08775E+12
43;ГОСУДАРСТВЕННОЕ БЮДЖЕТНОЕ УЧРЕЖДЕНИЕ ГОРОДА МОСКВЫ «МОСКОВСКОЕ ГОРОДСКОЕ ФИЗКУЛЬТУРНО-СПОРТИВНОЕ ОБЪЕДИНЕНИЕ» ДЕПАРТАМЕНТА ФИЗИЧЕСКОЙ КУЛЬТУРЫ И СПОРТА ГОРОДА МОСКВЫ;63809263;ГБУ «МГФСО» Москомспорта;853;3-я Фрунзенская улица, дом 5;Россия;Москва;3-я Фрунзенская улица;дом 5;генеральный директор;Балачинский Сурен Романович;mgfso.ru;mgfso@mossport.ru;7709138322;1,0277E+12
44;ГОСУДАРСТВЕННОЕ БЮДЖЕТНОЕ УЧРЕЖДЕНИЕ ГОРОДА МОСКВЫ «СПОРТКЛУБ «ВЫМПЕЛ» ИМЕНИ О.П.МАКАРОВА;63809264;ГБУ «СК «Вымпел» им. О.П. Макарова Левобережного р-на г. Москвы;219930;Ленинградское шоссе, дом 98, корпус 1;Россия;Москва;Ленинградское шоссе;дом 98, корпус 1;директор;Якунина Галина Александровна;;;7743623600;1,06776E+12
45;ГОСУДАРСТВЕННОЕ БЮДЖЕТНОЕ УЧРЕЖДЕНИЕ ГОРОДА МОСКВЫ «СПОРТИВНАЯ ШКОЛА «БОРЕЦ» ДЕПАРТАМЕНТА ФИЗИЧЕСКОЙ КУЛЬТУРЫ И СПОРТА ГОРОДА МОСКВЫ;63809265;ГБУ «Спортивная школа «Борец» Москомспорта;207038;Боровское шоссе, дом 37, корпус 1;Россия;Москва;Боровское шоссе;дом 37, корпус 1;директор;Куринной Игорь Игоревич;borec.ru;s96@mossport.ru;7732004599;1,02774E+12
46;ГОСУДАРСТВЕННОЕ БЮДЖЕТНОЕ УЧРЕЖДЕНИЕ ГОРОДА МОСКВЫ «СПОРТИВНАЯ ШКОЛА «КОСИНО» ДЕПАРТАМЕНТА ФИЗИЧЕСКОЙ КУЛЬТУРЫ И СПОРТА ГОРОДА МОСКВЫ;63809266;ГБУ «Спортивная школа «Косино» Москомспорта;219113;улица Николая Старостина, дом 8, корпус А;Россия;Москва;улица Николая Старостина;дом 8, корпус А;директор;Калинкин Александр Степанович;kosino.mossport.ru;baskosino@gmail.com;7720270236;1,02772E+12
47;ГОСУДАРСТВЕННОЕ БЮДЖЕТНОЕ УЧРЕЖДЕНИЕ ГОРОДА МОСКВЫ «СПОРТИВНАЯ ШКОЛА «РУССКАЯ ГОРНОЛЫЖНАЯ ШКОЛА - СТОЛИЦА» ДЕПАРТАМЕНТА ФИЗИЧЕСКОЙ КУЛЬТУРЫ И СПОРТА ГОРОДА МОСКВЫ;63809267;ГБУ «Спортивная школа «Русская горнолыжная школа - Столица» Москомспорта;219114;Милютинский переулок, дом 18, корпус 4;Россия;Москва;Милютинский переулок;дом 18, корпус 4;директор;Цеханович Василий Михайлович;www.rass-s.ru;stolitsa@mossport.ru;7708183178;1,0377E+12
48;ГОСУДАРСТВЕННОЕ БЮДЖЕТНОЕ УЧРЕЖДЕНИЕ ГОРОДА МОСКВЫ «СПОРТИВНАЯ ШКОЛА «ЭНТУЗИАСТ» ДЕПАРТАМЕНТА ФИЗИЧЕСКОЙ КУЛЬТУРЫ И СПОРТА ГОРОДА МОСКВЫ;63809268;ГБУ «Спортивная школа «Энтузиаст» Москомспорта;219127;Вешняковская улица, дом 16А;Россия;Москва;Вешняковская улица;дом 16А;директор;Карпяк Павел Владимирович;дюсш-энтузиаст.рф;entuziast@mossport.ru;7720525212;1,05775E+12
49;ГОСУДАРСТВЕННОЕ БЮДЖЕТНОЕ УЧРЕЖДЕНИЕ ГОРОДА МОСКВЫ «СПОРТИВНАЯ ШКОЛА № 10» ДЕПАРТАМЕНТА ФИЗИЧЕСКОЙ КУЛЬТУРЫ И СПОРТА ГОРОДА МОСКВЫ;63809269;ГБУ «Спортивная школа № 10» Москомспорта;205216;город Зеленоград, Озёрная аллея, дом 4;Россия;Москва;город Зеленоград;Озёрная аллея, дом 4;директор;Горовцов Игорь Анатольевич;;Zel-orbita@mail.ru;7735093029;1,02774E+12
50;ГОСУДАРСТВЕННОЕ БЮДЖЕТНОЕ УЧРЕЖДЕНИЕ ГОРОДА МОСКВЫ «СПОРТИВНАЯ ШКОЛА № 101 «ТУШИНО» ДЕПАРТАМЕНТА ФИЗИЧЕСКОЙ КУЛЬТУРЫ И СПОРТА ГОРОДА МОСКВЫ;63809270;ГБУ «Спортивная школа № 101 «Тушино» Москомспорта;219107;Сходненская улица, дом 15;Россия;Москва;Сходненская улица;дом 15;директор;Казадой Сергей Михайлович;www.sportschool101.ru;s101@mossport.ru;7733048623;1,03774E+12
51;ГОСУДАРСТВЕННОЕ БЮДЖЕТНОЕ УЧРЕЖДЕНИЕ ГОРОДА МОСКВЫ «СПОРТИВНАЯ ШКОЛА № 102» ДЕПАРТАМЕНТА ФИЗИЧЕСКОЙ КУЛЬТУРЫ И СПОРТА ГОРОДА МОСКВЫ;63809271;ГБУ «Спортивная школа № 102» Москомспорта;219116;улица Маршала Василевского, дом 1, корпус 1;Россия;Москва;улица Маршала Василевского;дом 1, корпус 1;директор;Рогачева Оксана Алексеевна;сш102.рф;sdushor102@mail.ru;7734092992;1,03774E+12
52;ГОСУДАРСТВЕННОЕ БЮДЖЕТНОЕ УЧРЕЖДЕНИЕ ГОРОДА МОСКВЫ «СПОРТИВНАЯ ШКОЛА № 103 «ЮЖНОЕ ТУШИНО» ДЕПАРТАМЕНТА ФИЗИЧЕСКОЙ КУЛЬТУРЫ И СПОРТА ГОРОДА МОСКВЫ;63809272;ГБУ «Спортивная школа № 103 «Южное Тушино» Москомспорта;219126;улица Василия Петушкова, дом 10;Россия;Москва;улица Василия Петушкова;дом 10;директор;Брызгалин Алексей Алексеевич;www.rugby-tushino.ru;s103@mossport.ru;7733153226;1,03773E+12
53;ГОСУДАРСТВЕННОЕ БЮДЖЕТНОЕ УЧРЕЖДЕНИЕ ГОРОДА МОСКВЫ «СПОРТИВНАЯ ШКОЛА № 104 «ЖЕМЧУЖИНА» ДЕПАРТАМЕНТА ФИЗИЧЕСКОЙ КУЛЬТУРЫ И СПОРТА ГОРОДА МОСКВЫ;63809273;ГБУ «Спортивная школа № 104 «Жемчужина» Москомспорта;219117;улица Генерала Белобородова, дом 29;Россия;Москва;улица Генерала Белобородова;дом 29;директор;Лушников Евгений Владимирович;sportschool-104.ru;s104@mossport.ru;7733150761;1,02773E+12
54;ГОСУДАРСТВЕННОЕ БЮДЖЕТНОЕ УЧРЕЖДЕНИЕ ГОРОДА МОСКВЫ «СПОРТИВНАЯ ШКОЛА № 112 «СПУТНИК» ДЕПАРТАМЕНТА ФИЗИЧЕСКОЙ КУЛЬТУРЫ И СПОРТА ГОРОДА МОСКВЫ;63809274;ГБУ «Спортивная школа № 112 «Спутник» Москомспорта;219118;город Зеленоград, корпус 907;Россия;Москва;город Зеленоград;корпус 907;директор;Кулин Николай Александрович;www.sputnik112.ru;s112@mossport.ru;7735053241;1,0277E+12
55;ГОСУДАРСТВЕННОЕ БЮДЖЕТНОЕ УЧРЕЖДЕНИЕ ГОРОДА МОСКВЫ «СПОРТИВНАЯ ШКОЛА № 114 «РЕКОРД» ДЕПАРТАМЕНТА ФИЗИЧЕСКОЙ КУЛЬТУРЫ И СПОРТА ГОРОДА МОСКВЫ;63809275;ГБУ «Спортивная школа № 114 «Рекорд» Москомспорта;219119;город Зеленоград, корпус 1613;Россия;Москва;город Зеленоград;корпус 1613;директор;Таравиков Алексей Иванович;www.dush114.ru;dush114@mail.ru;7735513386;1,05775E+12
56;ГОСУДАРСТВЕННОЕ БЮДЖЕТНОЕ УЧРЕЖДЕНИЕ ГОРОДА МОСКВЫ «СПОРТИВНАЯ ШКОЛА № 2» ДЕПАРТАМЕНТА ФИЗИЧЕСКОЙ КУЛЬТУРЫ И СПОРТА ГОРОДА МОСКВЫ;63809276;ГБУ «Спортивная школа № 2» Москомспорта;205213;Заповедная улица, дом 1;Россия;Москва;Заповедная улица;дом 1;генеральный директор;Иванов Олег Александрович;skmedvedkovo.ru;rabotalap@yandex.ru;7715196837;1,03774E+12
57;ГОСУДАРСТВЕННОЕ БЮДЖЕТНОЕ УЧРЕЖДЕНИЕ ГОРОДА МОСКВЫ «СПОРТИВНАЯ ШКОЛА № 26» ДЕПАРТАМЕНТА ФИЗИЧЕСКОЙ КУЛЬТУРЫ И СПОРТА ГОРОДА МОСКВЫ;63809277;ГБУ «Спортивная школа № 26» Москомспорта;219121;1-й Самотёчный переулок, дом 17А;Россия;Москва;1-й Самотёчный переулок;дом 17А;директор;Иванычев Максим Сергеевич;www.sportschool26.com;s26@mossport.ru;7702059311;1,03774E+12
58;ГОСУДАРСТВЕННОЕ БЮДЖЕТНОЕ УЧРЕЖДЕНИЕ ГОРОДА МОСКВЫ «СПОРТИВНАЯ ШКОЛА № 29 «ХАМОВНИКИ» ДЕПАРТАМЕНТА ФИЗИЧЕСКОЙ КУЛЬТУРЫ И СПОРТА ГОРОДА МОСКВЫ;63809278;ГБУ «Спортивная школа № 29 «Хамовники» Москомспорта;202;3-я Фрунзенская улица, дом 5, корпус 1;Россия;Москва;3-я Фрунзенская улица;дом 5, корпус 1;директор;Быстрова Татьяна Николаевна;дюсш29-хамовники.рф;s29@mossport.ru;7704012358;1,03774E+12
59;ГОСУДАРСТВЕННОЕ БЮДЖЕТНОЕ УЧРЕЖДЕНИЕ ГОРОДА МОСКВЫ «СПОРТИВНАЯ ШКОЛА № 4» ДЕПАРТАМЕНТА ФИЗИЧЕСКОЙ КУЛЬТУРЫ И СПОРТА ГОРОДА МОСКВЫ;63809279;ГБУ «Спортивная школа № 4» Москомспорта;207025;1-я Вольская улица, дом 15, корпус 1;Россия;Москва;1-я Вольская улица;дом 15, корпус 1;директор;Юшкин Николай Анатольевич;www.S4mossport.ru;uchchast4@yandex.ru;7723146597;1,02774E+12
60;ГОСУДАРСТВЕННОЕ БЮДЖЕТНОЕ УЧРЕЖДЕНИЕ ГОРОДА МОСКВЫ «СПОРТИВНАЯ ШКОЛА № 55 «СКИФ» ДЕПАРТАМЕНТА ФИЗИЧЕСКОЙ КУЛЬТУРЫ И СПОРТА ГОРОДА МОСКВЫ;63809280;ГБУ «Спортивная школа № 55 «СКИФ» Москомспорта;219123;Сахалинская улица, дом 5;Россия;Москва;Сахалинская улица;дом 5;директор;Новиков Сергей Анатольевич;combatschool.ru;cs55@inbox.ru;7719028047;1,0277E+12
61;ГОСУДАРСТВЕННОЕ БЮДЖЕТНОЕ УЧРЕЖДЕНИЕ ГОРОДА МОСКВЫ «СПОРТИВНАЯ ШКОЛА № 57 «КРЫЛЬЯ СОВЕТОВ» ДЕПАРТАМЕНТА ФИЗИЧЕСКОЙ КУЛЬТУРЫ И СПОРТА ГОРОДА МОСКВЫ;63809281;ГБУ «Спортивная школа № 57 «Крылья Советов» Москомспорта;207030;шоссе Энтузиастов, дом 54;Россия;Москва;шоссе Энтузиастов;дом 54;исполняющий обязанности директора;Назаров Иван Константинович;www.fc-57.ru;s57@mossport.ru;7720015130;1,02774E+12
62;ГОСУДАРСТВЕННОЕ БЮДЖЕТНОЕ УЧРЕЖДЕНИЕ ГОРОДА МОСКВЫ «СПОРТИВНАЯ ШКОЛА № 58» ДЕПАРТАМЕНТА ФИЗИЧЕСКОЙ КУЛЬТУРЫ И СПОРТА ГОРОДА МОСКВЫ;63809282;ГБУ «Спортивная школа № 58» Москомспорта;219124;Сиреневый бульвар, дом 2, корпус 1А;Россия;Москва;Сиреневый бульвар;дом 2, корпус 1А;директор;Астахов Денис Борисович;дюсш.рф;dush58@mail.ru;7719163600;1,02774E+12
63;ГОСУДАРСТВЕННОЕ БЮДЖЕТНОЕ УЧРЕЖДЕНИЕ ГОРОДА МОСКВЫ «СПОРТИВНАЯ ШКОЛА № 62» ДЕПАРТАМЕНТА ФИЗИЧЕСКОЙ КУЛЬТУРЫ И СПОРТА ГОРОДА МОСКВЫ;63809283;ГБУ «Спортивная школа № 62» Москомспорта;210165;Привольная улица, дом 42;Россия;Москва;Привольная улица;дом 42;директор;Шевцов Алексей Викторович;спорт62.рф;s62@mossport.ru;7721263746;1,03772E+12
64;ГОСУДАРСТВЕННОЕ БЮДЖЕТНОЕ УЧРЕЖДЕНИЕ ГОРОДА МОСКВЫ «СПОРТИВНАЯ ШКОЛА № 7» ДЕПАРТАМЕНТА ФИЗИЧЕСКОЙ КУЛЬТУРЫ И СПОРТА ГОРОДА МОСКВЫ;63809284;ГБУ «Спортивная школа № 7» Москомспорта;207027;Чоботовская улица, дом 4;Россия;Москва;Чоботовская улица;дом 4;генеральный директор;Куталадзе Иракли Теймуразович;www.s7mossport.ru;s7@mossport.ru;7731181436;1,03774E+12
65;ГОСУДАРСТВЕННОЕ БЮДЖЕТНОЕ УЧРЕЖДЕНИЕ ГОРОДА МОСКВЫ «СПОРТИВНАЯ ШКОЛА № 70 «МОЛНИЯ» ДЕПАРТАМЕНТА ФИЗИЧЕСКОЙ КУЛЬТУРЫ И СПОРТА ГОРОДА МОСКВЫ;63809285;ГБУ «Спортивная школа № 70 «Молния» Москомспорта;207396;Лобненская улица, дом 13А;Россия;Москва;Лобненская улица;дом 13А;директор;Кирдянов Николай Викторович;www.dush-70.ru;s70@mossport.ru;7713334880;1,03771E+12
66;ГОСУДАРСТВЕННОЕ БЮДЖЕТНОЕ УЧРЕЖДЕНИЕ ГОРОДА МОСКВЫ «СПОРТИВНАЯ ШКОЛА № 75 «САВЕЛОВСКАЯ» ДЕПАРТАМЕНТА ФИЗИЧЕСКОЙ КУЛЬТУРЫ И СПОРТА ГОРОДА МОСКВЫ;63809286;ГБУ «Спортивная школа № 75 «Савеловская» Москомспорта;211440;Вятская улица, дом 41;Россия;Москва;Вятская улица;дом 41;директор;Акуненко Александр Владимирович;dush-75.ru;s75@mossport.ru;7714502256;1,03774E+12
67;ГОСУДАРСТВЕННОЕ БЮДЖЕТНОЕ УЧРЕЖДЕНИЕ ГОРОДА МОСКВЫ «СПОРТИВНАЯ ШКОЛА № 76» ДЕПАРТАМЕНТА ФИЗИЧЕСКОЙ КУЛЬТУРЫ И СПОРТА ГОРОДА МОСКВЫ;63809287;ГБУ «Спортивная школа № 76» Москомспорта;205385;Бескудниковский бульвар, дом 12А;Россия;Москва;Бескудниковский бульвар;дом 12А;директор;Корнеев Александр Николаевич;www.dush76.ru;dush76@mail.ru;7713035104;1,03774E+12
68;ГОСУДАРСТВЕННОЕ БЮДЖЕТНОЕ УЧРЕЖДЕНИЕ ГОРОДА МОСКВЫ «СПОРТИВНАЯ ШКОЛА № 77» ДЕПАРТАМЕНТА ФИЗИЧЕСКОЙ КУЛЬТУРЫ И СПОРТА ГОРОДА МОСКВЫ;63809288;ГБУ «Спортивная школа № 77» Москомспорта;211416;Керамический проезд, дом 61, корпус 3;Россия;Москва;Керамический проезд;дом 61, корпус 3;директор;Иванов Виктор Павлович;www.s77mos.com;s77@mossport.ru;7713333358;1,02771E+12
69;ГОСУДАРСТВЕННОЕ БЮДЖЕТНОЕ УЧРЕЖДЕНИЕ ГОРОДА МОСКВЫ «СПОРТИВНАЯ ШКОЛА № 82» ДЕПАРТАМЕНТА ФИЗИЧЕСКОЙ КУЛЬТУРЫ И СПОРТА ГОРОДА МОСКВЫ;63809289;ГБУ «Спортивная школа № 82» Москомспорта;211414;Инженерная улица, дом 5, корпус 1;Россия;Москва;Инженерная улица;дом 5, корпус 1;руководитель юридического лица;Тюрников Сергей Иванович;www.dussh82.ru;dussh82mossport@mail.ru;7715394821;1,03772E+12
70;ГОСУДАРСТВЕННОЕ БЮДЖЕТНОЕ УЧРЕЖДЕНИЕ ГОРОДА МОСКВЫ «СПОРТИВНАЯ ШКОЛА № 84» ДЕПАРТАМЕНТА ФИЗИЧЕСКОЙ КУЛЬТУРЫ И СПОРТА ГОРОДА МОСКВЫ;63809290;ГБУ «Спортивная школа № 84» Москомспорта;219125;Ясный проезд, дом 24, корпус 4;Россия;Москва;Ясный проезд;дом 24, корпус 4;директор;Ларкина Людмила Юрьевна;www.volleyschool84.ru;sv84.07@mail.ru;7715026049;1,03774E+12
71;ГОСУДАРСТВЕННОЕ БЮДЖЕТНОЕ УЧРЕЖДЕНИЕ ГОРОДА МОСКВЫ «СПОРТИВНАЯ ШКОЛА № 86» ДЕПАРТАМЕНТА ФИЗИЧЕСКОЙ КУЛЬТУРЫ И СПОРТА ГОРОДА МОСКВЫ;63809291;ГБУ «Спортивная школа № 86» Москомспорта;205223;улица Яблочкова, дом 3;Россия;Москва;улица Яблочкова;дом 3;директор;Афонин Максим Александрович;s86.mossport.ru;s86@mossport.ru;7715068419;1,02774E+12
72;ГОСУДАРСТВЕННОЕ БЮДЖЕТНОЕ УЧРЕЖДЕНИЕ ГОРОДА МОСКВЫ «СПОРТИВНАЯ ШКОЛА № 93 «НА МОЖАЙКЕ» ДЕПАРТАМЕНТА ФИЗИЧЕСКОЙ КУЛЬТУРЫ И СПОРТА ГОРОДА МОСКВЫ;63809292;ГБУ «Спортивная школа № 93 «На Можайке» Москомспорта;207032;улица Гришина, дом 8, корпус 3;Россия;Москва;улица Гришина;дом 8, корпус 3;директор;Шерман Александр Яковлевич;m-93.com;s93@mossport.ru;7731091126;1,03774E+12
73;ГОСУДАРСТВЕННОЕ БЮДЖЕТНОЕ УЧРЕЖДЕНИЕ ГОРОДА МОСКВЫ «СПОРТИВНАЯ ШКОЛА ОЛИМПИЙСКОГО РЕЗЕРВА «ВОРОБЬЕВЫ ГОРЫ» ДЕПАРТАМЕНТА ФИЗИЧЕСКОЙ КУЛЬТУРЫ И СПОРТА ГОРОДА МОСКВЫ;63809293;ГБУ «Спортивная школа олимпийского резерва «Воробьевы горы» Москомспорта;219128;Новорогожская улица, дом 25, корпус 4;Россия;Москва;Новорогожская улица;дом 25, корпус 4;директор;Суфиянов Рашид Мансурович;vorobgori.mossport.ru;vgory@mossport.ru;7729272848;1,02774E+12
74;ГОСУДАРСТВЕННОЕ БЮДЖЕТНОЕ УЧРЕЖДЕНИЕ ГОРОДА МОСКВЫ «СПОРТИВНАЯ ШКОЛА ОЛИМПИЙСКОГО РЕЗЕРВА «МОСКВИЧ» ДЕПАРТАМЕНТА ФИЗИЧЕСКОЙ КУЛЬТУРЫ И СПОРТА ГОРОДА МОСКВЫ;63809294;ГБУ «Спортивная школа олимпийского резерва «Москвич» Москомспорта;219129;Волгоградский проспект, дом 46/15;Россия;Москва;Волгоградский проспект;дом 46/15;генеральный директор;Яровов Иван Сергеевич;www.sport-moskvich.ru;moskvich@sport-moskvich.ru;7723153844;1,03774E+12
75;ГОСУДАРСТВЕННОЕ БЮДЖЕТНОЕ УЧРЕЖДЕНИЕ ГОРОДА МОСКВЫ «СПОРТИВНАЯ ШКОЛА ОЛИМПИЙСКОГО РЕЗЕРВА «МОСКОВСКАЯ ШКОЛА ГОЛЬФА» ДЕПАРТАМЕНТА ФИЗИЧЕСКОЙ КУЛЬТУРЫ И СПОРТА ГОРОДА МОСКВЫ;63809295;ГБУ «Спортивная школа олимпийского резерва «Московская школа гольфа» Москомспорта;219130;Соколово-Мещерская улица, дом 27, корпус 1;Россия;Москва;Соколово-Мещерская улица;дом 27, корпус 1;директор;Каюров Юрий Григорьевич;www.msgolf.su;mosgolf@mail.ru;7719039715;1,0377E+12
76;ГОСУДАРСТВЕННОЕ БЮДЖЕТНОЕ УЧРЕЖДЕНИЕ ГОРОДА МОСКВЫ «СПОРТИВНАЯ ШКОЛА ОЛИМПИЙСКОГО РЕЗЕРВА «НАГОРНАЯ» ДЕПАРТАМЕНТА ФИЗИЧЕСКОЙ КУЛЬТУРЫ И СПОРТА ГОРОДА МОСКВЫ;63809296;ГБУ «Спортивная школа олимпийского резерва «Нагорная» Москомспорта;219131;Нагорный бульвар, дом 17А;Россия;Москва;Нагорный бульвар;дом 17А;директор;Кириченко Александр Александрович;www.shkolanagornaya.com;shkola-bmx@mail.ru;7727235840;1,03773E+12
77;ГОСУДАРСТВЕННОЕ БЮДЖЕТНОЕ УЧРЕЖДЕНИЕ ГОРОДА МОСКВЫ «СПОРТИВНАЯ ШКОЛА ОЛИМПИЙСКОГО РЕЗЕРВА «СЕВЕРНЫЙ» ДЕПАРТАМЕНТА ФИЗИЧЕСКОЙ КУЛЬТУРЫ И СПОРТА ГОРОДА МОСКВЫ;63809297;ГБУ «Спортивная школа олимпийского резерва «Северный» Москомспорта;219132;9-я Северная линия, дом 1Б;Россия;Москва;9-я Северная линия;дом 1Б;директор;Старостин Анатолий Васильевич;sport-severny.ru;severny99@mail.ru;7715135778;1,03774E+12
78;ГОСУДАРСТВЕННОЕ БЮДЖЕТНОЕ УЧРЕЖДЕНИЕ ГОРОДА МОСКВЫ «СПОРТИВНАЯ ШКОЛА ОЛИМПИЙСКОГО РЕЗЕРВА «ТРУДОВЫЕ РЕЗЕРВЫ» ДЕПАРТАМЕНТА ФИЗИЧЕСКОЙ КУЛЬТУРЫ И СПОРТА ГОРОДА МОСКВЫ;63809298;ГБУ «Спортивная школа олимпийского резерва «Трудовые резервы» Москомспорта;219115;Нижняя Первомайская улица, дом 52;Россия;Москва;Нижняя Первомайская улица;дом 52;директор;Лексин Сергей Федорович;www.trudrez.ru;sfk.tr@mossport.ru;7719029594;1,03774E+12
79;ГОСУДАРСТВЕННОЕ БЮДЖЕТНОЕ УЧРЕЖДЕНИЕ ГОРОДА МОСКВЫ «СПОРТИВНАЯ ШКОЛА ОЛИМПИЙСКОГО РЕЗЕРВА № 1» ДЕПАРТАМЕНТА ФИЗИЧЕСКОЙ КУЛЬТУРЫ И СПОРТА ГОРОДА МОСКВЫ;63809299;ГБУ «Спортивная школа олимпийского резерва № 1» Москомспорта;207023;Левобережная улица, дом 12, корпус 1;Россия;Москва;Левобережная улица;дом 12, корпус 1;директор;Михайлов Андрей Борисович;umkabm.ru;s1@mos.ru;7712102510;1,0377E+12
80;ГОСУДАРСТВЕННОЕ БЮДЖЕТНОЕ УЧРЕЖДЕНИЕ ГОРОДА МОСКВЫ «СПОРТИВНАЯ ШКОЛА ОЛИМПИЙСКОГО РЕЗЕРВА № 111» ДЕПАРТАМЕНТА ФИЗИЧЕСКОЙ КУЛЬТУРЫ И СПОРТА ГОРОДА МОСКВЫ;63809300;ГБУ «Спортивная школа олимпийского резерва № 111» Москомспорта;219134;город Зеленоград, корпус 348Б;Россия;Москва;город Зеленоград;корпус 348Б;директор;Копп Георгий Викторович;sport111.ru;s111@mossport.ru;7735055979;1,03774E+12
81;ГОСУДАРСТВЕННОЕ БЮДЖЕТНОЕ УЧРЕЖДЕНИЕ ГОРОДА МОСКВЫ «СПОРТИВНАЯ ШКОЛА ОЛИМПИЙСКОГО РЕЗЕРВА № 21» ДЕПАРТАМЕНТА ФИЗИЧЕСКОЙ КУЛЬТУРЫ И СПОРТА ГОРОДА МОСКВЫ;63809301;ГБУ «Спортивная школа олимпийского резерва № 21» Москомспорта;205355;Большой Харитоньевский переулок, дом 22/1;Россия;Москва;Большой Харитоньевский переулок;дом 22/1;директор;Базаев Владимир Александрович;;s21@mossport.ru;7701109680;1,03774E+12
82;ГОСУДАРСТВЕННОЕ БЮДЖЕТНОЕ УЧРЕЖДЕНИЕ ГОРОДА МОСКВЫ «СПОРТИВНАЯ ШКОЛА ОЛИМПИЙСКОГО РЕЗЕРВА №23» ДЕПАРТАМЕНТА ФИЗИЧЕСКОЙ КУЛЬТУРЫ И СПОРТА ГОРОДА МОСКВЫ;63809302;ГБУ «Спортивная школа олимпийского резерва № 23» Москомспорта;219120;улица Александра Невского, дом 4;Россия;Москва;улица Александра Невского;дом 4;директор;Панкратова Ольга Александровна;swim23.ru;s23@mossport.ru;7710145980;1,03774E+12
83;ГОСУДАРСТВЕННОЕ БЮДЖЕТНОЕ УЧРЕЖДЕНИЕ ГОРОДА МОСКВЫ «СПОРТИВНАЯ ШКОЛА ОЛИМПИЙСКОГО РЕЗЕРВА № 24» ДЕПАРТАМЕНТА ФИЗИЧЕСКОЙ КУЛЬТУРЫ И СПОРТА ГОРОДА МОСКВЫ;63809303;ГБУ «Спортивная школа олимпийского резерва № 24» Москомспорта;219135;Рабочая улица, дом 53;Россия;Москва;Рабочая улица;дом 53;директор;Гуляева Елена Викторовна;sportschool-24.ru;s24@mossport.ru;7709045580;1,03774E+12
84;ГОСУДАРСТВЕННОЕ БЮДЖЕТНОЕ УЧРЕЖДЕНИЕ ГОРОДА МОСКВЫ «СПОРТИВНАЯ ШКОЛА ОЛИМПИЙСКОГО РЕЗЕРВА № 25» ДЕПАРТАМЕНТА ФИЗИЧЕСКОЙ КУЛЬТУРЫ И СПОРТА ГОРОДА МОСКВЫ;63809304;ГБУ «Спортивная школа олимпийского резерва № 25» Москомспорта;205357;Вятская улица, дом 28;Россия;Москва;Вятская улица;дом 28;директор;Гинкевич Инна Владимировна;sportschool-25.ru;s25@mossport.ru;7714045360;1,03774E+12
85;ГОСУДАРСТВЕННОЕ БЮДЖЕТНОЕ УЧРЕЖДЕНИЕ ГОРОДА МОСКВЫ «СПОРТИВНАЯ ШКОЛА ОЛИМПИЙСКОГО РЕЗЕРВА № 27 «СОКОЛ» ДЕПАРТАМЕНТА ФИЗИЧЕСКОЙ КУЛЬТУРЫ И СПОРТА ГОРОДА МОСКВЫ;63809305;ГБУ «Спортивная школа олимпийского резерва № 27 «Сокол» Москомспорта;205217;Верхняя Красносельская улица, дом 7А, корпус 1;Россия;Москва;Верхняя Красносельская улица;дом 7А, корпус 1;директор;Вахитов Борис Хабипович;www.sokol27.ru;s27@mossport.ru;7708051887;1,03774E+12
86;ГОСУДАРСТВЕННОЕ БЮДЖЕТНОЕ УЧРЕЖДЕНИЕ ГОРОДА МОСКВЫ «СПОРТИВНАЯ ШКОЛА ОЛИМПИЙСКОГО РЕЗЕРВА № 28» ДЕПАРТАМЕНТА ФИЗИЧЕСКОЙ КУЛЬТУРЫ И СПОРТА ГОРОДА МОСКВЫ;63809306;ГБУ «Спортивная школа олимпийского резерва № 28» Москомспорта;205359;улица Трёхгорный Вал, дом 2/4;Россия;Москва;улица Трёхгорный Вал;дом 2/4;директор;Сбитнева Ольга Анатольевна;sdushor28.ucoz.ru;s28@mossport.ru;7703114340;1,0377E+12
87;ГОСУДАРСТВЕННОЕ БЮДЖЕТНОЕ УЧРЕЖДЕНИЕ ГОРОДА МОСКВЫ «СПОРТИВНАЯ ШКОЛА ОЛИМПИЙСКОГО РЕЗЕРВА № 41 «МОСКВОРЕЧЬЕ» ДЕПАРТАМЕНТА ФИЗИЧЕСКОЙ КУЛЬТУРЫ И СПОРТА ГОРОДА МОСКВЫ;63809307;ГБУ «Спортивная школа олимпийского резерва № 41 «Москворечье» Москомспорта;208729;улица Лестева, дом 3;Россия;Москва;улица Лестева;дом 3;директор;Тимофеев Владимир Григорьевич;www.sdushor41.ru;s41@mossport.ru;7725032108;1,0377E+12
88;ГОСУДАРСТВЕННОЕ БЮДЖЕТНОЕ УЧРЕЖДЕНИЕ ГОРОДА МОСКВЫ «СПОРТИВНАЯ ШКОЛА ОЛИМПИЙСКОГО РЕЗЕРВА № 42» ДЕПАРТАМЕНТА ФИЗИЧЕСКОЙ КУЛЬТУРЫ И СПОРТА ГОРОДА МОСКВЫ;63809308;ГБУ «Спортивная школа олимпийского резерва № 42» Москомспорта;206288;Россошанский проезд, дом 4, корпус 4;Россия;Москва;Россошанский проезд;дом 4, корпус 4;директор;Садретдинов Рушан Нюруллович;sdushor42.ru;s42@mossport.ru;7726065787;1,03774E+12
89;ГОСУДАРСТВЕННОЕ БЮДЖЕТНОЕ УЧРЕЖДЕНИЕ ГОРОДА МОСКВЫ «СПОРТИВНАЯ ШКОЛА ОЛИМПИЙСКОГО РЕЗЕРВА № 43» ДЕПАРТАМЕНТА ФИЗИЧЕСКОЙ КУЛЬТУРЫ И СПОРТА ГОРОДА МОСКВЫ;63809309;ГБУ «Спортивная школа олимпийского резерва № 43» Москомспорта;213934;улица Подольских Курсантов, дом 4А;Россия;Москва;улица Подольских Курсантов;дом 4А;директор;Мелихов Иван Вадимович;biathlon43.ru;s43@mossport.ru;7726080707;1,0277E+12
90;ГОСУДАРСТВЕННОЕ БЮДЖЕТНОЕ УЧРЕЖДЕНИЕ ГОРОДА МОСКВЫ «СПОРТИВНАЯ ШКОЛА ОЛИМПИЙСКОГО РЕЗЕРВА № 44» ДЕПАРТАМЕНТА ФИЗИЧЕСКОЙ КУЛЬТУРЫ И СПОРТА ГОРОДА МОСКВЫ;63809310;ГБУ «Спортивная школа олимпийского резерва № 44» Москомспорта;205364;Лисичанская улица, дом 3;Россия;Москва;Лисичанская улица;дом 3;директор;Купцова Марина Геннадьевна;sdushor44.ru;sdushor44@yandex.ru;7737046095;1,03774E+12
91;ГОСУДАРСТВЕННОЕ БЮДЖЕТНОЕ УЧРЕЖДЕНИЕ ГОРОДА МОСКВЫ «СПОРТИВНАЯ ШКОЛА ОЛИМПИЙСКОГО РЕЗЕРВА № 45 «ПРОЛЕТАРСКИЙ САМБИСТ» ДЕПАРТАМЕНТА ФИЗИЧЕСКОЙ КУЛЬТУРЫ И СПОРТА ГОРОДА МОСКВЫ;63809202;ГБУ «Спортивная школа олимпийского резерва № 45 «Пролетарский самбист» Москомспорта;205368;улица Садовники, дом 13, корпус 3;Россия;Москва;улица Садовники;дом 13, корпус 3;директор;Дмитриев Роман Михайлович;s45.mossport.ru;sdushor-45@mail.ru;7725009860;1,03774E+12
92;ГОСУДАРСТВЕННОЕ БЮДЖЕТНОЕ УЧРЕЖДЕНИЕ ГОРОДА МОСКВЫ «СПОРТИВНАЯ ШКОЛА ОЛИМПИЙСКОГО РЕЗЕРВА № 46» ДЕПАРТАМЕНТА ФИЗИЧЕСКОЙ КУЛЬТУРЫ И СПОРТА ГОРОДА МОСКВЫ;63809203;ГБУ «Спортивная школа олимпийского резерва № 46» Москомспорта;205369;3-я Радиальная улица, дом 8;Россия;Москва;3-я Радиальная улица;дом 8;директор;Лузганов Николай Федорович;www.sdushor46.ru;s46@mos.ru;7737065997;1,0377E+12
93;ГОСУДАРСТВЕННОЕ БЮДЖЕТНОЕ УЧРЕЖДЕНИЕ ГОРОДА МОСКВЫ «СПОРТИВНАЯ ШКОЛА ОЛИМПИЙСКОГО РЕЗЕРВА № 47» ДЕПАРТАМЕНТА ФИЗИЧЕСКОЙ КУЛЬТУРЫ И СПОРТА ГОРОДА МОСКВЫ;63809204;ГБУ «Спортивная школа олимпийского резерва № 47» Москомспорта;205219;Лебедянская улица, дом 14, корпус 4;Россия;Москва;Лебедянская улица;дом 14, корпус 4;директор;Смирнов Владимир Викторович;www.sportschool47.ru;s47@mossport.ru;7724053120;1,03774E+12
94;ГОСУДАРСТВЕННОЕ БЮДЖЕТНОЕ УЧРЕЖДЕНИЕ ГОРОДА МОСКВЫ «СПОРТИВНАЯ ШКОЛА ОЛИМПИЙСКОГО РЕЗЕРВА № 49 «ТРИНТА» ИМЕНИ Ю.Я. РАВИНСКОГО» ДЕПАРТАМЕНТА ФИЗИЧЕСКОЙ КУЛЬТУРЫ И СПОРТА ГОРОДА МОСКВЫ;63809205;ГБУ «Спортивная школа олимпийского резерва № 49 «Тринта» Москомспорта;219138;Загородное шоссе, дом 2А;Россия;Москва;Загородное шоссе;дом 2А;директор;Сизов Сергей Александрович;trinta.ru;Info@trinta.ru;7726020730;1,02774E+12
95;ГОСУДАРСТВЕННОЕ БЮДЖЕТНОЕ УЧРЕЖДЕНИЕ ГОРОДА МОСКВЫ «СПОРТИВНАЯ ШКОЛА ОЛИМПИЙСКОГО РЕЗЕРВА № 53» ДЕПАРТАМЕНТА ФИЗИЧЕСКОЙ КУЛЬТУРЫ И СПОРТА ГОРОДА МОСКВЫ;63809206;ГБУ «Спортивная школа олимпийского резерва № 53» Москомспорта;219111;улица Молдагуловой, дом 20А;Россия;Москва;улица Молдагуловой;дом 20А;директор;Борисов Эдуард Леонидович;edhandball.ru;sdusshor53@bk.ru;7720056183;1,03774E+12
96;ГОСУДАРСТВЕННОЕ БЮДЖЕТНОЕ УЧРЕЖДЕНИЕ ГОРОДА МОСКВЫ «СПОРТИВНАЯ ШКОЛА ОЛИМПИЙСКОГО РЕЗЕРВА № 54 «ОРИЕНТА» ДЕПАРТАМЕНТА ФИЗИЧЕСКОЙ КУЛЬТУРЫ И СПОРТА ГОРОДА МОСКВЫ;63809207;ГБУ «Спортивная школа олимпийского резерва № 54 «Ориента» Москомспорта;205373;Федеративный проспект, дом 37Б;Россия;Москва;Федеративный проспект;дом 37Б;директор;Шевяков Владимир Михайлович;www.ориента.рф;orienta54@mail.ru;7720095263;1,0377E+12
97;ГОСУДАРСТВЕННОЕ БЮДЖЕТНОЕ УЧРЕЖДЕНИЕ ГОРОДА МОСКВЫ «СПОРТИВНАЯ ШКОЛА ОЛИМПИЙСКОГО РЕЗЕРВА № 56» ДЕПАРТАМЕНТА ФИЗИЧЕСКОЙ КУЛЬТУРЫ И СПОРТА ГОРОДА МОСКВЫ;63809208;ГБУ «Спортивная школа олимпийского резерва № 56» Москомспорта;205220;Новосибирская улица, дом 11А;Россия;Москва;Новосибирская улица;дом 11А;директор;Попова Татьяна Анатольевна;sdushor56-basket.ru;s56@mossport.ru;7718103950;1,02774E+12
98;ГОСУДАРСТВЕННОЕ БЮДЖЕТНОЕ УЧРЕЖДЕНИЕ ГОРОДА МОСКВЫ «СПОРТИВНАЯ ШКОЛА ОЛИМПИЙСКОГО РЕЗЕРВА № 61 «ФОРТУНА» ДЕПАРТАМЕНТА ФИЗИЧЕСКОЙ КУЛЬТУРЫ И СПОРТА ГОРОДА МОСКВЫ;63809209;ГБУ «Спортивная школа олимпийского резерва № 61 «Фортуна» Москомспорта;205374;1-я улица Машиностроения, дом 16;Россия;Москва;1-я улица Машиностроения;дом 16;директор;Щербинин Алексей Александрович;sdusshor61.ucoz.ru;s61@mossport.ru;7723010853;1,03774E+12
99;ГОСУДАРСТВЕННОЕ БЮДЖЕТНОЕ УЧРЕЖДЕНИЕ ГОРОДА МОСКВЫ «СПОРТИВНАЯ ШКОЛА ОЛИМПИЙСКОГО РЕЗЕРВА № 63 «СМЕНА» ДЕПАРТАМЕНТА ФИЗИЧЕСКОЙ КУЛЬТУРЫ И СПОРТА ГОРОДА МОСКВЫ;63809210;ГБУ «Спортивная школа олимпийского резерва № 63 «Смена» Москомспорта;212178;2-й квартал Капотня, дом 2а, строение 1;Россия;Москва;2-й квартал Капотня;дом 2а, строение 1;директор;Евсеев Владимир Петрович;www.fs-smena63.ru;smena-63@mail.ru;7723123712;1,03774E+12
100;ГОСУДАРСТВЕННОЕ БЮДЖЕТНОЕ УЧРЕЖДЕНИЕ ГОРОДА МОСКВЫ «СПОРТИВНАЯ ШКОЛА ОЛИМПИЙСКОГО РЕЗЕРВА № 64» ДЕПАРТАМЕНТА ФИЗИЧЕСКОЙ КУЛЬТУРЫ И СПОРТА ГОРОДА МОСКВЫ;63809211;ГБУ «Спортивная школа олимпийского резерва № 64» Москомспорта;205376;Есенинский бульвар, дом 9, корпус 2;Россия;Москва;Есенинский бульвар;дом 9, корпус 2;директор;ОстроумовВладимир Николаевич;СДЮСШОР64.РФ;sdushor64uvr@mail.ru;7721020415;1,03774E+12
101;ГОСУДАРСТВЕННОЕ БЮДЖЕТНОЕ УЧРЕЖДЕНИЕ ГОРОДА МОСКВЫ «СПОРТИВНАЯ ШКОЛА ОЛИМПИЙСКОГО РЕЗЕРВА № 65 «НИКА» ДЕПАРТАМЕНТА ФИЗИЧЕСКОЙ КУЛЬТУРЫ И СПОРТА ГОРОДА МОСКВЫ;63809212;ГБУ «Спортивная школа олимпийского резерва № 65 «Ника» Москомспорта;219139;улица Академика Скрябина, дом 40, корпус 1;Россия;Москва;улица Академика Скрябина;дом 40, корпус 1;директор;Березин Леонид Юрьевич;sdushor65nika.ru;sdushor65nika@yandex.ru;7721015574;1,02774E+12
102;ГОСУДАРСТВЕННОЕ БЮДЖЕТНОЕ УЧРЕЖДЕНИЕ ГОРОДА МОСКВЫ «СПОРТИВНАЯ ШКОЛА ОЛИМПИЙСКОГО РЕЗЕРВА № 71 «ТИМИРЯЗЕВСКАЯ» ДЕПАРТАМЕНТА ФИЗИЧЕСКОЙ КУЛЬТУРЫ И СПОРТА ГОРОДА МОСКВЫ;63809213;ГБУ «Спортивная школа олимпийского резерва № 71 «Тимирязевская» Москомспорта;219140;улица 800-летия Москвы, дом 7Б;Россия;Москва;улица 800-летия Москвы;дом 7Б;директор;Ященко Дмитрий Евгеньевич;www.team-basket.ru;s71@mossport.ru;7707085668;1,03774E+12
103;ГОСУДАРСТВЕННОЕ БЮДЖЕТНОЕ УЧРЕЖДЕНИЕ ГОРОДА МОСКВЫ «СПОРТИВНАЯ ШКОЛА ОЛИМПИЙСКОГО РЕЗЕРВА № 73 «ВИКТОРИЯ» ДЕПАРТАМЕНТА ФИЗИЧЕСКОЙ КУЛЬТУРЫ И СПОРТА ГОРОДА МОСКВЫ;63809214;ГБУ «Спортивная школа олимпийского резерва № 73 «Виктория» Москомспорта;219142;улица Алабяна, дом 13, корпус 1;Россия;Москва;улица Алабяна;дом 13, корпус 1;директор;Коротаев Андрей Викторович;s73.mossport.ru;s73@mossport.ru;7743003011;1,0377E+12
104;ГОСУДАРСТВЕННОЕ БЮДЖЕТНОЕ УЧРЕЖДЕНИЕ ГОРОДА МОСКВЫ «СПОРТИВНАЯ ШКОЛА ОЛИМПИЙСКОГО РЕЗЕРВА № 74» ДЕПАРТАМЕНТА ФИЗИЧЕСКОЙ КУЛЬТУРЫ И СПОРТА ГОРОДА МОСКВЫ;63809215;ГБУ «Спортивная школа олимпийского резерва № 74» Москомспорта;205381;Волоколамское шоссе, дом 12;Россия;Москва;Волоколамское шоссе;дом 12;директор;Капранова Ольга Сергеевна;школа-гимнастики.рф;sdushor74@bk.ru;7712030456;1,03774E+12
105;ГОСУДАРСТВЕННОЕ БЮДЖЕТНОЕ УЧРЕЖДЕНИЕ ГОРОДА МОСКВЫ «СПОРТИВНАЯ ШКОЛА ОЛИМПИЙСКОГО РЕЗЕРВА № 81 «БАБУШКИНО» ДЕПАРТАМЕНТА ФИЗИЧЕСКОЙ КУЛЬТУРЫ И СПОРТА ГОРОДА МОСКВЫ;63809216;ГБУ «Спортивная школа олимпийского резерва № 81 «Бабушкино» Москомспорта;205386;Ярославское шоссе, дом 65;Россия;Москва;Ярославское шоссе;дом 65;директор;Котомкина Ольга Алексеевна;www.sdushor81.ru;sdushor81@mail.ru;7716052757;1,03774E+12
106;ГОСУДАРСТВЕННОЕ БЮДЖЕТНОЕ УЧРЕЖДЕНИЕ ГОРОДА МОСКВЫ «СПОРТИВНАЯ ШКОЛА ОЛИМПИЙСКОГО РЕЗЕРВА № 9 «ШАБОЛОВКА» ДЕПАРТАМЕНТА ФИЗИЧЕСКОЙ КУЛЬТУРЫ И СПОРТА ГОРОДА МОСКВЫ;63809217;ГБУ «Спортивная школа олимпийского резерва № 9 «Шаболовка» Москомспорта;219143;Милютинский переулок, дом 18;Россия;Москва;Милютинский переулок;дом 18;директор;Тимофеева Елена Викторовна;www.sportschool-9.ru;mos_school-9@mail.ru;7708108149;1,0377E+12
107;ГОСУДАРСТВЕННОЕ БЮДЖЕТНОЕ УЧРЕЖДЕНИЕ ГОРОДА МОСКВЫ «СПОРТИВНАЯ ШКОЛА ОЛИМПИЙСКОГО РЕЗЕРВА № 92 «СОЛНЦЕВО» ДЕПАРТАМЕНТА ФИЗИЧЕСКОЙ КУЛЬТУРЫ И СПОРТА ГОРОДА МОСКВЫ;63809218;ГБУ «Спортивная школа олимпийского резерва № 92 «Солнцево» Москомспорта;205387;Солнцевский проспект, дом 9;Россия;Москва;Солнцевский проспект;дом 9;директор;Ромахина Татьяна Константиновна;;s92@mossport.ru;7732084121;1,02774E+12
108;ГОСУДАРСТВЕННОЕ БЮДЖЕТНОЕ УЧРЕЖДЕНИЕ ГОРОДА МОСКВЫ «СПОРТИВНАЯ ШКОЛА ОЛИМПИЙСКОГО РЕЗЕРВА № 95» ДЕПАРТАМЕНТА ФИЗИЧЕСКОЙ КУЛЬТУРЫ И СПОРТА ГОРОДА МОСКВЫ;63809219;ГБУ «Спортивная школа олимпийского резерва № 95» Москомспорта;205224;Большая Филёвская улица, дом 6;Россия;Москва;Большая Филёвская улица;дом 6;директор;Орешкин Сергей Алексеевич;s95.ucoz.ru;shkola-95@mail.ru;7730009986;1,03774E+12
109;ГОСУДАРСТВЕННОЕ БЮДЖЕТНОЕ УЧРЕЖДЕНИЕ ГОРОДА МОСКВЫ «СПОРТИВНАЯ ШКОЛА ПО ТЕННИСУ «ОЛИМПИЕЦ» ДЕПАРТАМЕНТА ФИЗИЧЕСКОЙ КУЛЬТУРЫ И СПОРТА ГОРОДА МОСКВЫ;63809220;ГБУ «Спортивная школа по теннису «Олимпиец» Москомспорта;219144;улица Удальцова, дом 54;Россия;Москва;улица Удальцова;дом 54;директор;Лакомкин Сергей Николаевич;www.tennis-olimpiets.ru;olimpiets@mos.ru;7708108460;1,02774E+12
110;ГОСУДАРСТВЕННОЕ БЮДЖЕТНОЕ УЧРЕЖДЕНИЕ ГОРОДА МОСКВЫ «СПОРТИВНО-АДАПТИВНАЯ ШКОЛА» ДЕПАРТАМЕНТА ФИЗИЧЕСКОЙ КУЛЬТУРЫ И СПОРТА ГОРОДА МОСКВЫ;63809452;ГБУ «Спортивно-адаптивная школа» Москомспорта;209679;улица Корнейчука, дом 28, корпус 2;Россия;Москва;улица Корнейчука;дом 28, корпус 2;директор;Никонов Сергей Николаевич;dush80-svao.ru;s80@mossport.ru;7715363823;1,03772E+12
111;ГОСУДАРСТВЕННОЕ БЮДЖЕТНОЕ УЧРЕЖДЕНИЕ ГОРОДА МОСКВЫ «СПОРТИВНЫЙ КОМПЛЕКС «КРЫЛАТСКОЕ» ДЕПАРТАМЕНТА ФИЗИЧЕСКОЙ КУЛЬТУРЫ И СПОРТА ГОРОДА МОСКВЫ;63809453;ГБУ «Спортивный комплекс «Крылатское» Москомспорта;219167;Крылатская улица, дом 16;Россия;Москва;Крылатская улица;дом 16;генеральный директор;Москалев Михаил Валериевич;www.skating-palace.ru;sk.krylatskoe@mossport.ru;7731463021;1,14775E+12
112;ГОСУДАРСТВЕННОЕ БЮДЖЕТНОЕ УЧРЕЖДЕНИЕ ГОРОДА МОСКВЫ «ФИЗКУЛЬТУРНО-СПОРТИВНОЕ ОБЪЕДИНЕНИЕ «ХОККЕЙ МОСКВЫ» ДЕПАРТАМЕНТА ФИЗИЧЕСКОЙ КУЛЬТУРЫ И СПОРТА ГОРОДА МОСКВЫ;63809454;ГБУ «ФСО «Хоккей Москвы» Москомспорта;219145;Ореховый бульвар, дом 18, корпус 2;Россия;Москва;Ореховый бульвар;дом 18, корпус 2;генеральный директор;Бабинов Сергей Пантилимонович;fso-hockeymoscow.ru;fco.hm@mossport.ru;7734619260;1,09775E+12
113;ГОСУДАРСТВЕННОЕ БЮДЖЕТНОЕ УЧРЕЖДЕНИЕ ГОРОДА МОСКВЫ «ФИЗКУЛЬТУРНО-СПОРТИВНОЕ ОБЪЕДИНЕНИЕ «ЮНОСТЬ МОСКВЫ» ДЕПАРТАМЕНТА ФИЗИЧЕСКОЙ КУЛЬТУРЫ И СПОРТА ГОРОДА МОСКВЫ;63809455;ГБУ «ФСО «Юность Москвы» Москомспорта;219146;улица Стромынка, дом 4, строение 1;Россия;Москва;улица Стромынка;дом 4, строение 1;генеральный директор;Прохоров Владимир Анатольевич;www.ynmos.ru;fso.yum@mossport.ru;7709157406;1,03774E+12
114;ГОСУДАРСТВЕННОЕ БЮДЖЕТНОЕ УЧРЕЖДЕНИЕ ГОРОДА МОСКВЫ «ФИЗКУЛЬТУРНО-СПОРТИВНЫЙ ЦЕНТР «ЭКСТРИМ» ДЕПАРТАМЕНТА ФИЗИЧЕСКОЙ КУЛЬТУРЫ И СПОРТА ГОРОДА МОСКВЫ;63809456;ГБУ «ФСЦ «Экстрим» Москомспорта;219147;улица Мичуринский Проспект, Олимпийская Деревня, дом 3;Россия;Москва;улица Мичуринский Проспект;Олимпийская Деревня, дом 3;директор;Сорокин Алексей Владимирович;центрэкстрим.рф;utcemvs@mossport.ru;7708048203;1,03774E+12
115;ГОСУДАРСТВЕННОЕ БЮДЖЕТНОЕ УЧРЕЖДЕНИЕ ГОРОДА МОСКВЫ «ЦЕНТР СПОРТИВНОЙ ПОДГОТОВКИ «КРЫЛАТСКОЕ» ДЕПАРТАМЕНТА ФИЗИЧЕСКОЙ КУЛЬТУРЫ И СПОРТА ГОРОДА МОСКВЫ;63809457;ГБУ «ЦСП «Крылатское»;219153;Западная улица, дом 16Б;Россия;Москва;Западная улица;дом 16Б;директор;Климов Дмитрий Анатольевич;www.cspkrilatskoe.ru;press@cspkrilatskoe.ru;7731260857;1,02773E+12
116;ГОСУДАРСТВЕННОЕ БЮДЖЕТНОЕ УЧРЕЖДЕНИЕ ГОРОДА МОСКВЫ «ЦЕНТР СПОРТИВНОЙ ПОДГОТОВКИ ПО ЛЕГКОЙ АТЛЕТИКЕ» ДЕПАРТАМЕНТА ФИЗИЧЕСКОЙ КУЛЬТУРЫ И СПОРТА ГОРОДА МОСКВЫ;63809458;ГБУ «ЦСП по легкой атлетике»;219154;Милютинский переулок, дом 18;Россия;Москва;Милютинский переулок;дом 18;заместитель директора по учебно-спортивной работе;Петровская Ирина Александровна;www.mosathletics.ru;la@mossport.ru;7708047802;1,03774E+12
117;ГОСУДАРСТВЕННОЕ БЮДЖЕТНОЕ УЧРЕЖДЕНИЕ ГОРОДА МОСКВЫ «ЦЕНТР ФИЗИЧЕСКОЙ КУЛЬТУРЫ И СПОРТА ВОСТОЧНОГО АДМИНИСТРАТИВНОГО ОКРУГА ГОРОДА МОСКВЫ» ДЕПАРТАМЕНТА ФИЗИЧЕСКОЙ КУЛЬТУРЫ И СПОРТА ГОРОДА МОСКВЫ;63809459;ГБУ «ЦФКиС ВАО г. Москвы»;213863;Перовская улица, дом 28;Россия;Москва;Перовская улица;дом 28;директор;Панкратов Денис Владимирович;;office@vaosport.ru;7720528661;1,05775E+12
118;ГОСУДАРСТВЕННОЕ БЮДЖЕТНОЕ УЧРЕЖДЕНИЕ ГОРОДА МОСКВЫ «ЦЕНТР ФИЗИЧЕСКОЙ КУЛЬТУРЫ И СПОРТА ЗАПАДНОГО АДМИНИСТРАТИВНОГО ОКРУГА ГОРОДА МОСКВЫ» ДЕПАРТАМЕНТА ФИЗИЧЕСКОЙ КУЛЬТУРЫ И СПОРТА ГОРОДА МОСКВЫ;63809460;ГБУ «ЦФКиС ЗАО г. Москвы»;219155;улица Герасима Курина, дом 44, корпус 1;Россия;Москва;улица Герасима Курина;дом 44, корпус 1;директор;Таравкова Ольга Юрьевна;;cfk-zao@yandex.ru;7731522654;1,05775E+12
119;ГОСУДАРСТВЕННОЕ БЮДЖЕТНОЕ УЧРЕЖДЕНИЕ ГОРОДА МОСКВЫ «ЦЕНТР ФИЗИЧЕСКОЙ КУЛЬТУРЫ И СПОРТА ЗЕЛЕНОГРАДСКОГО АДМИНИСТРАТИВНОГО ОКРУГА ГОРОДА МОСКВЫ» ДЕПАРТАМЕНТА ФИЗИЧЕСКОЙ КУЛЬТУРЫ И СПОРТА ГОРОДА МОСКВЫ;63809461;ГБУ «ЦФКиС Зеленоградского АО г. Москвы»;219156;город Зеленоград, корпус 118;Россия;Москва;город Зеленоград;корпус 118;директор;Сысоев Алексей Владимирович;www.zelaosport.ru;zelsport@mail.ru;7735515464;1,05775E+12
120;ГОСУДАРСТВЕННОЕ БЮДЖЕТНОЕ УЧРЕЖДЕНИЕ ГОРОДА МОСКВЫ «ЦЕНТР ФИЗИЧЕСКОЙ КУЛЬТУРЫ И СПОРТА СЕВЕРНОГО АДМИНИСТРАТИВНОГО ОКРУГА ГОРОДА МОСКВЫ» ДЕПАРТАМЕНТА ФИЗИЧЕСКОЙ КУЛЬТУРЫ И СПОРТА ГОРОДА МОСКВЫ;63809462;ГБУ «ЦФКиС САО г. Москвы»;219157;Весенняя улица, дом 4;Россия;Москва;Весенняя улица;дом 4;директор;Махмутов Олег Владимирович;;;7743554770;1,05775E+12
121;ГОСУДАРСТВЕННОЕ БЮДЖЕТНОЕ УЧРЕЖДЕНИЕ ГОРОДА МОСКВЫ «ЦЕНТР ФИЗИЧЕСКОЙ КУЛЬТУРЫ И СПОРТА СЕВЕРО-ВОСТОЧНОГО АДМИНИСТРАТИВНОГО ОКРУГА ГОРОДА МОСКВЫ» ДЕПАРТАМЕНТА ФИЗИЧЕСКОЙ КУЛЬТУРЫ И СПОРТА ГОРОДА МОСКВЫ;63809463;ГБУ «ЦФКиС СВАО г. Москвы»;219158;улица Милашенкова, дом 14;Россия;Москва;улица Милашенкова;дом 14;директор;Чугунов Вадим Олегович;www.svaosport.ru;c.svao@mossport.ru;7715558741;1,05775E+12
122;ГОСУДАРСТВЕННОЕ БЮДЖЕТНОЕ УЧРЕЖДЕНИЕ ГОРОДА МОСКВЫ «ЦЕНТР ФИЗИЧЕСКОЙ КУЛЬТУРЫ И СПОРТА СЕВЕРО-ЗАПАДНОГО АДМИНИСТРАТИВНОГО ОКРУГА ГОРОДА МОСКВЫ» ДЕПАРТАМЕНТА ФИЗИЧЕСКОЙ КУЛЬТУРЫ И СПОРТА ГОРОДА МОСКВЫ;63809464;ГБУ «ЦФКиС СЗАО г. Москвы»;212870;Лодочная улица, дом 31, корпус 4;Россия;Москва;Лодочная улица;дом 31, корпус 4;директор;Богиев Вадим Иосифович;www.sport-szao.ru;cfkis@bk.ru;7733545079;1,05775E+12
123;ГОСУДАРСТВЕННОЕ БЮДЖЕТНОЕ УЧРЕЖДЕНИЕ ГОРОДА МОСКВЫ «ЦЕНТР ФИЗИЧЕСКОЙ КУЛЬТУРЫ И СПОРТА ЦЕНТРАЛЬНОГО АДМИНИСТРАТИВНОГО ОКРУГА ГОРОДА МОСКВЫ» ДЕПАРТАМЕНТА ФИЗИЧЕСКОЙ КУЛЬТУРЫ И СПОРТА ГОРОДА МОСКВЫ;63809465;ГБУ «ЦФКиС ЦАО г. Москвы»;212926;Мантулинская улица, дом 24, строение 1;Россия;Москва;Мантулинская улица;дом 24, строение 1;директор;Шастин Виктор Александрович;;c.tsao@mossport.ru;7703570818;1,05775E+12
124;ГОСУДАРСТВЕННОЕ БЮДЖЕТНОЕ УЧРЕЖДЕНИЕ ГОРОДА МОСКВЫ «ЦЕНТР ФИЗИЧЕСКОЙ КУЛЬТУРЫ И СПОРТА ЮЖНОГО АДМИНИСТРАТИВНОГО ОКРУГА ГОРОДА МОСКВЫ» ДЕПАРТАМЕНТА ФИЗИЧЕСКОЙ КУЛЬТУРЫ И СПОРТА ГОРОДА МОСКВЫ;63809466;ГБУ «ЦФКиС ЮАО г. Москвы»;212871;Гурьевский проезд, дом 19, корпус 3;Россия;Москва;Гурьевский проезд;дом 19, корпус 3;директор;Малышев Юрий Иванович;;cfks@mail.ru;7724559332;1,05775E+12
125;ГОСУДАРСТВЕННОЕ БЮДЖЕТНОЕ УЧРЕЖДЕНИЕ ГОРОДА МОСКВЫ «ЦЕНТР ФИЗИЧЕСКОЙ КУЛЬТУРЫ И СПОРТА ЮГО-ВОСТОЧНОГО АДМИНИСТРАТИВНОГО ОКРУГА ГОРОДА МОСКВЫ» ДЕПАРТАМЕНТА ФИЗИЧЕСКОЙ КУЛЬТУРЫ И СПОРТА ГОРОДА МОСКВЫ;63809467;ГБУ «ЦФКиС ЮВАО г. Москвы»;219159;Мячковский бульвар, дом 14, корпус 2;Россия;Москва;Мячковский бульвар;дом 14, корпус 2;директор;Матвеев Олег Владимирович;спортювао.рф;sportuvao@mail.ru;7723541188;1,05775E+12
126;ГОСУДАРСТВЕННОЕ БЮДЖЕТНОЕ УЧРЕЖДЕНИЕ ГОРОДА МОСКВЫ «ЦЕНТР ФИЗИЧЕСКОЙ КУЛЬТУРЫ И СПОРТА ЮГО-ЗАПАДНОГО АДМИНИСТРАТИВНОГО ОКРУГА ГОРОДА МОСКВЫ» ДЕПАРТАМЕНТА ФИЗИЧЕСКОЙ КУЛЬТУРЫ И СПОРТА ГОРОДА МОСКВЫ;63809468;ГБУ «ЦФКиС ЮЗАО г. Москвы»;213858;Профсоюзная улица, дом 30, корпус 2;Россия;Москва;Профсоюзная улица;дом 30, корпус 2;директор;Кузьмин Роман Сергеевич;sport-uzao.ru;cfcs@list.ru;7728549857;1,05775E+12
127;ГОСУДАРСТВЕННОЕ БЮДЖЕТНОЕ УЧРЕЖДЕНИЕ ГОРОДА МОСКВЫ «ДИРЕКЦИЯ СПОРТИВНЫХ И ЗРЕЛИЩНЫХ МЕРОПРИЯТИЙ» ДЕПАРТАМЕНТА ФИЗИЧЕСКОЙ КУЛЬТУРЫ И СПОРТА ГОРОДА МОСКВЫ;63809469;ГБУ Дирекция спортивных и зрелищных мероприятий Москомспорта (ГБУ ДСЗМ);219736;Милютинский переулок, дом 18;Россия;Москва;Милютинский переулок;дом 18;директор;Полинский Александр Григорьевич;;;7708186450;1,0277E+12
128;ГОСУДАРСТВЕННОЕ БЮДЖЕТНОЕ УЧРЕЖДЕНИЕ ГОРОДА МОСКВЫ СПОРТИВНЫЙ БАСКЕТБОЛЬНЫЙ КЛУБ «ГЛОРИЯ» ДЕПАРТАМЕНТА ФИЗИЧЕСКОЙ КУЛЬТУРЫ И СПОРТА ГОРОДА МОСКВЫ;63809470;ГБУ СБК «Глория» Москомспорта;207047;Зоологическая улица, дом 26А;Россия;Москва;Зоологическая улица;дом 26А;генеральный директор;Перекрестова Елена Вячеславовна;gloria-basket.ru;s22@mossport.ru;7710081913;1,0377E+12
129;ГОСУДАРСТВЕННОЕ БЮДЖЕТНОЕ УЧРЕЖДЕНИЕ ГОРОДА МОСКВЫ ФУТБОЛЬНЫЙ КЛУБ «СТРОГИНО» ДЕПАРТАМЕНТА ФИЗИЧЕСКОЙ КУЛЬТУРЫ И СПОРТА ГОРОДА МОСКВЫ;63809471;ГБУ ФК «Строгино» Москомспорта;219160;улица Василия Ботылёва, дом 41;Россия;Москва;улица Василия Ботылёва;дом 41;генеральный директор;Струтынский Дмитрий Андреевич;FS94.RU;s94@mossport.ru;7731143889;1,03774E+12
130;ГОСУДАРСТВЕННОЕ БЮДЖЕТНОЕ УЧРЕЖДЕНИЕ ГОРОДА МОСКВЫ ФУТБОЛЬНЫЙ КЛУБ «ФШМ» ДЕПАРТАМЕНТА ФИЗИЧЕСКОЙ КУЛЬТУРЫ И СПОРТА ГОРОДА МОСКВЫ;63809472;ГБУ ФК «ФШМ» Москомспорта;219122;улица Радио, дом 10, строение 9;Россия;Москва;улица Радио;дом 10, строение 9;директор;Милешкин Евгений Юрьевич;fshm-moscow.ru;FSHMSCHOOL@yandex.ru;7726273219;1,03774E+12
131;ГОСУДАРСТВЕННОЕ БЮДЖЕТНОЕ УЧРЕЖДЕНИЕ ГОРОДА МОСКВЫ «ЦЕНТР СПОРТИВНОЙ ПОДГОТОВКИ «ЛУЧ» ДЕПАРТАМЕНТА ФИЗИЧЕСКОЙ КУЛЬТУРЫ И СПОРТА ГОРОДА МОСКВЫ;63809473;ГБУ ЦСП «ЛУЧ»;212434;1-я Владимирская улица, дом 10Б;Россия;Москва;1-я Владимирская улица;дом 10Б;директор;Малков Владимир Юрьевич;;csp.luch@mossport.ru;7720663830;1,09775E+12
132;ГОСУДАРСТВЕННОЕ КАЗЕННОЕ УЧРЕЖДЕНИЕ ГОРОДА МОСКВЫ «ЦЕНТР СПОРТИВНЫХ ИННОВАЦИОННЫХ ТЕХНОЛОГИЙ И ПОДГОТОВКИ СБОРНЫХ КОМАНД» ДЕПАРТАМЕНТА ФИЗИЧЕСКОЙ КУЛЬТУРЫ И СПОРТА ГОРОДА МОСКВЫ;63809474;ГКУ «ЦСТиСК» Москомспорта;219162;улица Советской Армии, дом 6;Россия;Москва;улица Советской Армии;дом 6;директор;Ахмерова Кадрия Шамилевна;;cstsk@mossport.ru;7719631600;5,07775E+12
133;ГОСУДАРСТВЕННОЕ БЮДЖЕТНОЕ ОБЩЕОБРАЗОВАТЕЛЬНОЕ УЧРЕЖДЕНИЕ ГОРОДА МОСКВЫ «ШКОЛА № 1114»;63809563;Государственное бюджетное образовательное учреждение города Москвы средняя общеобразовательная школа № 1114;254359;Филёвский бульвар, дом 3, корпус 2;Россия;Москва;Филёвский бульвар;дом 3, корпус 2;директор;Ястребова Александра Петровна;;;7730160480;1,0277E+12
134;ГОСУДАРСТВЕННОЕ БЮДЖЕТНОЕ ПРОФЕССИОНАЛЬНОЕ ОБРАЗОВАТЕЛЬНОЕ УЧРЕЖДЕНИЕ ГОРОДА МОСКВЫ «ВОРОБЬЕВЫ ГОРЫ»;63809564;Государственное бюджетное профессиональное образовательное учреждение города Москвы «Воробьевы горы» (Московский Городской Дворец Детского (Юношеского) Tворчества);219615;улица Косыгина, дом 17;Россия;Москва;улица Косыгина;дом 17;директор;Шашков Андрей Анатольевич;;;7736110982;1,02774E+12
135;ГОСУДАРСТВЕННОЕ БЮДЖЕТНОЕ УЧРЕЖДЕНИЕ КУЛЬТУРЫ ГОРОДА МОСКВЫ «МОЛОДЁЖНЫЙ ЦЕНТР «ЛИДЕР»;63809477;Государственное бюджетное учреждение культуры города Москвы «Молодежный центр «Лидер»;255788;Лермонтовский проспект, дом 2, корпус 2;Россия;Москва;Лермонтовский проспект;дом 2, корпус 2;директор;Слепнев Николай Сергеевич;;;7721260777;1,03772E+12
136;ГОСУДАРСТВЕННОЕ ПРИРОДООХРАННОЕ БЮДЖЕТНОЕ УЧРЕЖДЕНИЕ ГОРОДА МОСКВЫ «МОСКОВСКОЕ ГОРОДСКОЕ УПРАВЛЕНИЕ ПРИРОДНЫМИ ТЕРРИТОРИЯМИ»;63809478;ГПБУ «Мосприрода»;255789;Мичуринский проспект, дом 13;Россия;Москва;Мичуринский проспект;дом 13;руководитель;Рябоконь Игорь Степанович;;;7704517334;1,0478E+12
137;ДЕПАРТАМЕНТ ПО ДЕЛАМ ГРАЖДАНСКОЙ ОБОРОНЫ, ЧРЕЗВЫЧАЙНЫМ СИТУАЦИЯМ И ПОЖАРНОЙ БЕЗОПАСНОСТИ ГОРОДА МОСКВЫ;63809479;Департамент Гочсипб города Москвы;261928;Тверская улица, дом 8/2, корпус 2;Россия;Москва;Тверская улица;дом 8/2, корпус 2;руководитель Департамента по делам гражданской обороны, чрезвычайным ситуациям и пожарной безопасности города Москвы;Акимов Юрий Николаевич;;;7710474791;1,05771E+12
138;ДЕПАРТАМЕНТ ОБРАЗОВАНИЯ ГОРОДА МОСКВЫ;63809480;Департамент образования города Москвы;219814;Большая Спасская улица, дом 15, корпус 1;Россия;Москва;Большая Спасская улица;дом 15, корпус 1;руководитель;Калина Исаак Иосифович;www.educom.ru;;7719028495;1,0277E+12
139;НЕГОСУДАРСТВЕННОЕ ОБРАЗОВАТЕЛЬНОЕ УЧРЕЖДЕНИЕ «УЧЕБНО-СПОРТИВНЫЙ ЦЕНТР ДОСААФ РОССИИ ЮГО-ВОСТОЧНОГО АДМИНИСТРАТИВНОГО ОКРУГА Г. МОСКВЫ»;63809565;Негосударственное образовательное учреждение «Учебно-спортивный центр ДОСААФ России Юго-Восточного административного округа г. Москвы»;219803;Ташкентская улица, дом 26, корпус 2;Россия;Москва;Ташкентская улица;дом 26, корпус 2;генеральный директор;Макушкин Анатолий Борисович;;;7721018776;1,03774E+12
140;РЕГИОНАЛЬНАЯ ОБЩЕСТВЕННАЯ ОРГАНИЗАЦИЯ «ДЕТСКАЯ ФУТБОЛЬНАЯ ЛИГА»;63809482;Региональная общественная организация «Детская Футбольная Лига»;219912;Ленинградский проспект, дом 36, корпус 6;Россия;Москва;Ленинградский проспект;дом 36, корпус 6;президент;Горлов Виктор Николаевич;;;7714035883;1,03774E+12
141;Закрытое акционерное общество «КУБОК КРЕМЛЯ»;63809483;ЗАО «Кубок Кремля»;258993;Олимпийский проспект, дом 16, строение 1;Россия;Москва;Олимпийский проспект;дом 16, строение 1;генеральный директор;Шахтин Яков Савельевич;;;7705049738;1,0277E+12
142;ЗАКРЫТОЕ АКЦИОНЕРНОЕ ОБЩЕСТВО «ЭКСПОЦЕНТР»;63809484;ЗАО «ЭКСПОЦЕНТР»;259645;Краснопресненская набережная, дом 14;Россия;Москва;Краснопресненская набережная;дом 14;генеральный директор;Беднов Сергей Сергеевич;;;7718033809;1,0277E+12
143;ГОСУДАРСТВЕННОЕ БЮДЖЕТНОЕ ОБРАЗОВАТЕЛЬНОЕ УЧРЕЖДЕНИЕ ДОПОЛНИТЕЛЬНОГО ОБРАЗОВАНИЯ ГОРОДА МОСКВЫ «ЗЕЛЕНОГРАДСКИЙ ДВОРЕЦ ТВОРЧЕСТВА ДЕТЕЙ И МОЛОДЕЖИ»;63809566;Государственное бюджетное образовательное учреждение дополнительного образования города Москвы «Зеленоградский Дворец Творчества Детей и Молодежи»;219616;город Зеленоград, площадь Колумба, дом 1;Россия;Москва;город Зеленоград;площадь Колумба, дом 1;директор;Свиридова Наталья Анатольевна;;;7735071709;1,02774E+12
144;МОЛОДЕЖНАЯ АВТОНОМНАЯ НЕКОММЕРЧЕСКАЯ ОРГАНИЗАЦИЯ «НОЧНЫЕ ВОЛКИ»;63809486;МАНО «Ночные волки»;259025;улица Нижние Мнёвники, дом 110;Россия;Москва;улица Нижние Мнёвники;дом 110;директор;Залдастанов Александр Сергеевич;;;7717141880;1,03772E+12
145;МУНИЦИПАЛЬНОЕ АВТОНОМНОЕ ОБРАЗОВАТЕЛЬНОЕ УЧРЕЖДЕНИЕ ДОПОЛНИТЕЛЬНОГО ОБРАЗОВАНИЯ ДЕТЕЙ ДЕТСКО-ЮНОШЕСКАЯ СПОРТИВНАЯ ШКОЛА -2;63809567;Муниципальное автономное образовательное учреждение Дополнительного образования детей детско-юношеская спортивная школа №2;219564;город Троицк, микрорайон В, дом 6А;Россия;Москва;город Троицк;микрорайон В, дом 6А;директор;Прохода Владимир Владимирович;;;5046060805;1,02501E+12
146;ФЕДЕРАЛЬНОЕ ГОСУДАРСТВЕННОЕ БЮДЖЕТНОЕ ОБРАЗОВАТЕЛЬНОЕ УЧРЕЖДЕНИЕ ВЫСШЕГО ПРОФЕССИОНАЛЬНОГО ОБРАЗОВАНИЯ «МОСКОВСКИЙ ГОСУДАРСТВЕННЫЙ ТЕХНИЧЕСКИЙ УНИВЕРСИТЕТ ИМЕНИ Н.Э. БАУМАНА»;63809488;МГТУ им. Н.Э. Баумана;259453;2-я Бауманская улица, дом 5, корпус 1;Россия;Москва;2-я Бауманская улица;дом 5, корпус 1;ректор;Александров Анатолий Александрович;;;7701002520;1,02774E+12
147;МЕЖДУНАРОДНАЯ ОБЩЕСТВЕННАЯ ОРГАНИЗАЦИЯ «МЕЖДУНАРОДНАЯ АССОЦИАЦИЯ ВЕТЕРАНОВ ПОДРАЗДЕЛЕНИЯ АНТИТЕРРОРА «АЛЬФА»;63809489;Международная ассоциация ветеранов подразделения «Альфа»;219975;Мичуринский проспект, дом 70А;Россия;Москва;Мичуринский проспект;дом 70А;президент ассоциации;Гончаров Сергей Алексеевич;;;7732022333;1,02774E+12
148;МИНИСТЕРСТВО ОБРАЗОВАНИЯ И НАУКИ РОССИЙСКОЙ ФЕДЕРАЦИИ;63809490;Министерство образования и науки Российской Федерации;219376;Тверская улица, дом 11, строение 4;Россия;Москва;Тверская улица;дом 11, строение 4;министр;Ливанов Дмитрий Викторович;;;7710539135;1,0478E+12
149;МИНИСТЕРСТВО СПОРТА РОССИЙСКОЙ ФЕДЕРАЦИИ;63809491;Минспорт России;219173;улица Казакова, дом 18;Россия;Москва;улица Казакова;дом 18;Министр спорта Российской Федерации;Мутко Виталий Леонтьевич;www.minsport.gov.ru;INFO@MINSPORT.GOV.RU;7703771271;1,12775E+12
150;Межрегиональная общественная организация «Спортивно - патриотический центр имени Святого Благоверного Великого князя Александра Невского»;63809492;МОО «Спортивно-патриотический центр имени Святого Благоверного Великого князя Александра Невского»;259472;Лужнецкая набережная, дом 2/4, корпус 17;Россия;Москва;Лужнецкая набережная;дом 2/4, корпус 17;председатель правления;Тихонов Алексей Николаевич;;;7704275928;1,0978E+12
151;МЕСТНАЯ OБЩЕСТВЕННАЯ ОРГАНИЗАЦИЯ «ФЕДЕРАЦИЯ ДЗЮДО Г. ЗЕЛЕНОГРАДА»;63809493;МОО «Федерация дзюдо г. Зеленограда»;219794;город Зеленоград, дом 1634, корпус 3;Россия;Москва;город Зеленоград;дом 1634, корпус 3;президент;Невзоров Виктор Михайлович;;;7735104873;1,02774E+12
152;Межрегиональная общественная организация «Федерация по виндсерфингу и кайтсерфингу»;63809494;МОО «Федерация по виндсерфингу и кайтсерфингу»;219844;Донская улица, дом 4, корпус 3;Россия;Москва;Донская улица;дом 4, корпус 3;президент;Отдельнов Михаил Геннадиевич;;;7706404230;1,04775E+12
153;МЕЖРЕГИОНАЛЬНАЯ ОБЩЕСТВЕННАЯ ОРГАНИЗАЦИЯ СОДЕЙСТВИЯ РАЗВИТИЮ ВОСТОЧНЫХ ЕДИНОБОРСТВ «ЦЕНТР-ВОСТОК»;63809495;МОО СРВЕ «Центр-Восток»;259620;улица Ляпидевского, дом 6, корпус 1;Россия;Москва;улица Ляпидевского;дом 6, корпус 1;президент;Лим Евгений Эверестович;;;7743109931;1,1278E+12
154;МЕЖРЕГИОНАЛЬНАЯ ОБЩЕСТВЕННАЯ ОРГАНИЗАЦИЯ ИНВАЛИДОВ «ИНВАКОН»;63809496;МООИ «ИНВАКОН»;259515;2-я Бауманская улица, дом 9/23, корпус 18;Россия;Москва;2-я Бауманская улица;дом 9/23, корпус 18;председатель совета, президент;Еланская Ирина Юрьевна;;;7701031137;1,02774E+12
155;Московская Баскетбольная Лига;63809497;Московская Баскетбольная Лига;261897;Большая Садовая улица, дом 3, корпус 8;Россия;Москва;Большая Садовая улица;дом 3, корпус 8;президент;Антонян Эмин Андраникович;;;7710475925;1,0778E+12
156;МОСКОВСКАЯ ГОРОДСКАЯ ОРГАНИЗАЦИЯ ОБЩЕСТВЕННО-ГОСУДАРСТВЕННОГО ОБЪЕДИНЕНИЯ «ВСЕРОССИЙСКОЕ ФИЗКУЛЬТУРНО-СПОРТИВНОЕ ОБЩЕСТВО «ДИНАМО»;63809498;Московская городская организация ВФСО «Динамо» (МГО ВФСО «Динамо«);219811;Ленинградский проспект, дом 36;Россия;Москва;Ленинградский проспект;дом 36;председатель;Рогожкин Николай Евгеньевич;;;7714036781;1,02774E+12
157;МОСКОВСКАЯ ФЕДЕРАЦИЯ ПРОФСОЮЗОВ;63809499;Московская федерация профсоюзов;259488;улица Новый Арбат, дом 36/9;Россия;Москва;улица Новый Арбат;дом 36/9;председатель;Чернов Сергей Иванович;;;7710026817;1,02774E+12
158;МОСКОВСКОЕ ГОРОДСКОЕ ОТДЕЛЕНИЕ ОБЩЕСТВЕННОЙ ОРГАНИЗАЦИИ «ФЕДЕРАЦИЯ КИК-БОКСИНГА РОССИИ»;63809500;Московское городское отделение ОО «Федерация кик-боксинга России»;235399;Милютинский переулок, дом 18;Россия;Москва;Милютинский переулок;дом 18;президент;Коников Сергей Львович;www.mfight.ru;mfk-sport@yandex.ru;7702080842;1,0277E+12
159;ДЕПАРТАМЕНТ ФИЗИЧЕСКОЙ КУЛЬТУРЫ И СПОРТА ГОРОДА МОСКВЫ;63809501;Москомспорт ИАС;219165;Милютинский переулок, дом 18, строение 4;Россия;Москва;Милютинский переулок;дом 18, строение 4;руководитель;Воробьев Алексей Олегович;mossport.ru;mossport@mossport.ru;7708040885;1,03774E+12
160;МОСКОВСКАЯ РЕГИОНАЛЬНАЯ ОРГАНИЗАЦИЯ «СТОЛИЦА» ОБЩЕРОССИЙСКОЙ ОБЩЕСТВЕННОЙ ОРГАНИЗАЦИИ ИНВАЛИДОВ ВОЙНЫ В АФГАНИСТАНЕ;63809502;МРО «Столица» Общероссийской общественной организации инвалидов войны в Афганистане;259023;Промышленный проезд, дом 3;Россия;Москва;Промышленный проезд;дом 3;председатель правления;Ермохин Алексей Яковлевич;;;7730110200;1,02774E+12
161;МОСКОВСКАЯ РЕГИОНАЛЬНАЯ ОБЩЕСТВЕННАЯ ОРГАНИЗАЦИЯ «ФЕДЕРАЦИЯ СПОРТА ЛИЦ С ПОРАЖЕНИЕМ ОПОРНО-ДВИГАТЕЛЬНОГО АППАРАТА»;63809503;МРОО «Федерация спорта лиц с поражением опорно-двигательного аппарата»;260281;Тургеневская площадь, дом 2;Россия;Москва;Тургеневская площадь;дом 2;президент Федерации;Бочаров Вячеслав Алексеевич;www.paralymp.ru;vka@paralymp.ru;7708241711;1,1478E+12
162;МЕЖРЕГИОНАЛЬНАЯ СПОРТИВНАЯ ОБЩЕСТВЕННАЯ ОРГАНИЗАЦИЯ «ОБЪЕДИНЕНИЕ ВЕТЕРАНОВ КОНЬКОБЕЖНОГО СПОРТА»;63809504;МСОО «Объединение ветеранов конькобежного спорта»;259468;улица Черняховского, дом 3;Россия;Москва;улица Черняховского;дом 3;президент;Репнин Борис Вадимович;;;7728314647;1,0577E+12
163;ОБЩЕРОССИЙСКАЯ ОБЩЕСТВЕННАЯ ОРГАНИЗАЦИЯ «ФЕДЕРАЦИЯ РОЛЛЕР СПОРТА РОССИИ»;63809505;МСОО «Федерация роллер спорта»;219918;Старая Басманная улица, дом 13, строение 1;Россия;Москва;Старая Басманная улица;дом 13, строение 1;президент;Ткачев Владимир Викторович;;;7709437636;1,04775E+12
164;НАЦИОНАЛЬНЫЙ БЛАГОТВОРИТЕЛЬНЫЙ ФОНД РАЗВИТИЯ ДЕТСКОГО РЕГБИ;63809506;Национальный фонд развития детского регби;220311;Воробьёвское шоссе, дом 4А;Россия;Москва;Воробьёвское шоссе;дом 4А;директор;Батырев Алексей Вадимович;;;7729441493;1,1078E+12
165;НЕКОММЕРЧЕСКОЕ ПАРТНЕРСТВО «ЗЕЛЕНОГРАДСКАЯ ФЕДЕРАЦИЯ КАРАТЭ»;63809507;НКП «Зеленоградская федерация каратэ»;259625;город Зеленоград, корпус 103;Россия;Москва;город Зеленоград;корпус 103;президент;Сизоненко Вадим Вадимович;;;7735506163;1,0478E+12
166;НЕКОММЕРЧЕСКОЕ ПАРТНЕРСТВО СПОРТИВНЫЙ КЛУБ «СОНСУДАН»;63809508;НКП СК «Сонсудан»;259619;улица Пырьева, дом 8;Россия;Москва;улица Пырьева;дом 8;президент;Нахпеков Эркин Ильясович;;;7729441422;1,1078E+12
167;Некоммерческая организация «Ассоциация студенческого баскетбола»;63809509;НО «Ассоциация студенческого баскетбола»;260776;Лужнецкая набережная, дом 8;Россия;Москва;Лужнецкая набережная;дом 8;президент;Коновалов Александр Владимирович;;;7704273800;1,0778E+12
168;НЕКОММЕРЧЕСКАЯ ОРГАНИЗАЦИЯ «АССОЦИАЦИЯ УЛИЧНОГО БАСКЕТБОЛА»;63809510;НО «Ассоциация уличного баскетбола «Стритбаскет»;259003;улица Талалихина, дом 28;Россия;Москва;улица Талалихина;дом 28;Первый Вице-президент;Бесфамильный Антон Сергеевич;;;7709653404;1,05775E+12
169;НО «Военно-спортивный фонд»;63809511;НО «Военно-спортивный фонд»;261899;улицв Большая Лубянка, дом 1/3;Россия;Москва;улицв Большая Лубянка;дом 1/3;председатель правления;Гаврилов Вадим Николаевич;;;7702370622;1,0778E+12
170;Некоммерческая организация «Фонд развития и поддержки культуры и спорта»;63809512;НО «Фонд развития и поддержки культуры и спорта»;259694;Донская улица, дом 4, корпус 1;Россия;Москва;Донская улица;дом 4, корпус 1;президент;Диваков Николай Николаевич;;;7706261254;1,03774E+12
171;НЕКОММЕРЧЕСКАЯ ОРГАНИЗАЦИЯ БЛАГОТВОРИТЕЛЬНЫЙ ФОНД «ДИРЕКЦИЯ БЛАГОТВОРИТЕЛЬНЫХ ПРОГРАММ «СТАРКО»;63809513;НО Благотворительный Фонд «Дирекция благотворительных программ «Старко»;219744;Садовая-Кудринская улица, дом 2/62;Россия;Москва;Садовая-Кудринская улица;дом 2/62;генеральный директор;Давыдов Юрий Николаевич;;;7703261753;1,03774E+12
172;НЕКОММЕРЧЕСКАЯ ОРГАНИЗАЦИЯ НЕКОММЕРЧЕСКОЕ ПАРТНЕРСТВО «ЦЕНТРАЛЬНЫЙ СПОРТИВНЫЙ КЛУБ «ЕВРОПОЛ-СПОРТ»;63809514;НОНП «ЦСК Европол-спорт»;258986;Рязанский проспект, дом 16, корпус 4;Россия;Москва;Рязанский проспект;дом 16, корпус 4;генеральный директор;Кузнецов Владимир Алексеевич;;;7721238316;1,0277E+12
173;НЕГОСУДАРСТВЕННОЕ ОБРАЗОВАТЕЛЬНОЕ УЧРЕЖДЕНИЕ «МОСКОВСКАЯ ШКОЛА ТАЭКВОН-ДО»;63809515;НОУ «МШТ»;220190;Херсонская улица, дом 7, корпус 4;Россия;Москва;Херсонская улица;дом 7, корпус 4;директор;Варшавский Александр Ильич;;;7703089252;1,03774E+12
174;НЕГОСУДАРСТВЕННОЕ ОБРАЗОВАТЕЛЬНОЕ УЧРЕЖДЕНИЕ ДОПОЛНИТЕЛЬНОГО ОБРАЗОВАНИЯ «ДЕТСКО-ЮНОШЕСКИЙ БАСКЕТБОЛЬНЫЙ КЛУБ «РУНА-БАСКЕТ»;63809516;НОУ ДО «ДЮБК «Руна-баскет»;260803;улица Островитянова, дом 1, строение 2;Россия;Москва;улица Островитянова;дом 1, строение 2;директор;Зверев Игорь Александрович;;;7728573923;1,06775E+12
175;НЕГОСУДАРСТВЕННОЕ ОБРАЗОВАТЕЛЬНОЕ УЧРЕЖДЕНИЕ «УЧЕБНО-СПОРТИВНЫЙ ЦЕНТР ДОСААФ РОССИИ СЕВЕРО-ВОСТОЧНОГО АДМИНИСТРАТИВНОГО ОКРУГА Г. МОСКВЫ»;63809517;НОУ УСЦ «ДОСААФ России СВАО Москвы»;219799;Большая Марфинская улица, дом 7А;Россия;Москва;Большая Марфинская улица;дом 7А;директор;Филин Олег Алексеевич;;;7715207905;1,03774E+12
176;АССОЦИАЦИЯ ОРГАНИЗАЦИЙ В ОБЛАСТИ МАССОВОГО СПОРТА, ИГРОВОЙ ИНДУСТРИИ И АКТИВНОГО ДОСУГА «ГОРОД ДЕТСТВА»;63809518;НП «Город детства»;259478;Сиреневый бульвар, дом 4;Россия;Москва;Сиреневый бульвар;дом 4;директор;Муравлева Наталья Таль-Атовна;;;7719265986;1,03772E+12
177;Некоммерческое партнерство «Национальная горнолыжная лига»;63809519;НП «Национальная горнолыжная лига»;237194;Лужнецкая набережная, дом 8, корпус 1;Россия;Москва;Лужнецкая набережная;дом 8, корпус 1;исполнительный директор;Новикова Светлана Леонидовна;;;7704234135;1,02774E+12
178;Некоммерческое партнерство «Содействие развитию авто и мотоспорта. Моторспорт Ивентс»;63809520;НП «Содействие развитию авто и мотоспорта. Моторспорт Ивентс»;258996;улица Обручева, дом 23;Россия;Москва;улица Обручева;дом 23;президент;Кафаров Тимур Тофикович;;;7728400494;1,1178E+12
179;НЕКОММЕРЧЕСКОЕ ПАРТНЕРСТВО «СОДЕЙСТВИЯ В РАЗВИТИИ РЕГБИ «ЗЕЛЕНОГРАДСКОЕ РЕГБИ»;63809521;НП «Содействия в развитии регби «Зеленоградское Регби»;260756;город Зеленоград, корпус 160;Россия;Москва;город Зеленоград;корпус 160;генеральный директор;Беккер Сергей Александрович;;;7735103132;1,03774E+12
180;НЕКОММЕРЧЕСКОЕ ПАРТНЕРСТВО «СПОРТИВНЫЙ КЛУБ ИМ. ВАЛЕРИЯ ПОПЕНЧЕНКО»;63809522;НП «Спортивный клуб им. Валерия Попенченко»;259005;Госпитальная набережная, дом 4/2;Россия;Москва;Госпитальная набережная;дом 4/2;президент;Попенченко Максим Валерьевич;;;7701358069;1,0678E+12
181;НЕКОММЕРЧЕСКОЕ ПАРТНЕРСТВО «ЦЕНТР СОДЕЙСТВИЯ РАЗВИТИЮ ПЛЯЖНЫХ ВИДОВ СПОРТА»;63809523;НП «Центр содействия развитию пляжных видов спорта»;258991;Нижняя Первомайская улица, дом 42;Россия;Москва;Нижняя Первомайская улица;дом 42;директор;Володарский Илья Арнольдович;;;7719047811;1,1178E+12
182;АКЦИОНЕРНОЕ ОБЩЕСТВО «ОЛИМПИЙСКИЙ КОМПЛЕКС «ЛУЖНИКИ»;63809524;ОАО «Олимпийский комплекс «Лужники»;258966;улица Лужники, дом 24;Россия;Москва;улица Лужники;дом 24;генеральный директор;Пронин Александр Николаевич;;;7704077210;1,0277E+12
183;ОРДЕНА ТРУДОВОГО КРАСНОГО ЗНАМЕНИ ОТКРЫТОЕ АКЦИОНЕРНОЕ ОБЩЕСТВО «ПЕРВЫЙ АВТОКОМБИНАТ» ИМЕНИ Г.Л. КРАУЗЕ;63809525;ОАО «Первый автокомбинат» имени Г. Л. Краузе;220304;улица Мнёвники, дом 1;Россия;Москва;улица Мнёвники;дом 1;генеральный директор;Штерн Борис Юдович;;;7734032873;1,0377E+12
184;АКЦИОНЕРНОЕ ОБЩЕСТВО «СПОРТИВНЫЙ КОМПЛЕКС «ОЛИМПИЙСКИЙ»;63809526;ОАО «Спортивный комплекс «Олимпийский»;257891;Олимпийский проспект, дом 16, строение 1;Россия;Москва;Олимпийский проспект;дом 16, строение 1;генеральный директор;Дюмин Артем Геннадьевич;;;7702014159;1,02774E+12
185;Общероссийской общественно-государственной организации «Добровольное общество содействия армии, авиации и флоту России» города Москвы;63809568;Общероссийской общественно-государственной организации «Добровольное общество содействия армии, авиации и флоту России» города Москвы;261930;улица Комсомольская, дом 9;Россия;Москва;улица Комсомольская;дом 9;председатель;Квасов Алексей Кириллович;;;2105005472;1,1021E+12
186;ОБЩЕСТВЕННАЯ ОРГАНИЗАЦИЯ - ШАХМАТНАЯ ФЕДЕРАЦИЯ Г. МОСКВЫ;63809312;Общественная организация - Шахматная федерация г. Москвы;235742;улица Стромынка, дом 18, корпус 4;Россия;Москва;улица Стромынка;дом 18, корпус 4;президент;Палихата Владимир Миронович;www.moscowchess.org;moschess@mail.ru;7704117022;1,0377E+12
187;Общество с ограниченной ответственностью «Спортивные проекты»;63809313;Общество с ограниченной ответственностью «Спортивные проекты»;259653;Бескудниковский бульвар, дом 11, корпус 3, строение 1;Россия;Москва;Бескудниковский бульвар;дом 11, корпус 3, строение 1;генеральный директор;Безрученко Александр Валерьевич;;;7713742544;1,12775E+12
188;ОБЩЕСТВЕННО-ГОСУДАРСТВЕННОЕ ФИЗКУЛЬТУРНО-СПОРТИВНОЕ ОБЪЕДИНЕНИЕ «ЮНОСТЬ РОССИИ»;63809314;ОГФСО «Юность России»;219820;улица Кедрова, дом 8, корпус 2;Россия;Москва;улица Кедрова;дом 8, корпус 2;председатель;Зотов Александр Павлович;;;7728273542;1,02775E+12
189;ОБЩЕСТВЕННАЯ ОРГАНИЗАЦИЯ «МОСКОВСКАЯ ФЕДЕРАЦИЯ КАРАТЭДО»;63809315;ОО «Московская федерация каратэ до»;219225;Милютинский переулок, дом 18;Россия;Москва;Милютинский переулок;дом 18;президент;Попов Леонид Львович;;;7708078871;1,03774E+12
190;Общероссийское общественное движение «ВСЕРОССИЙСКОЕ ОБЪЕДИНЕНИЕ БОЛЕЛЬЩИКОВ»;63809316;ООД «Всероссийское объединение болельщиков»;259032;Народная улица, дом 7;Россия;Москва;Народная улица;дом 7;исполнительный директор;Дроздов Сергей Александрович;;;7705519454;1,0878E+12
191;ОБЩЕСТВО С ОГРАНИЧЕННОЙ ОТВЕТСТВЕННОСТЬЮ «АГЕНТСТВО НЬЮ СПОРТ»;63809317;ООО «Агентство Нью Спорт»;258995;Причальный проезд, дом 4, корпус 2;Россия;Москва;Причальный проезд;дом 4, корпус 2;генеральный директор;Каленюк Павел Анатольевич;;;7734646545;1,10775E+12
192;ООО «Аксис Коммуникейшнс»;63809318;ООО «Аксис Коммуникейшнс»;261935;Ленинградский проспект, дом 31А, корпус 1;Россия;Москва;Ленинградский проспект;дом 31А, корпус 1;генеральный директор;Форсберг Анна Элизабет;;;7704659681;1,07776E+12
193;ОБЩЕСТВО С ОГРАНИЧЕННОЙ ОТВЕТСТВЕННОСТЬЮ «АССОЦИАЦИЯ СТУДЕНЧЕСКОГО И МОЛОДЕЖНОГО СПОРТА»;63809319;ООО «Ассоциация студенческого и молодежного спорта»;259341;Бойцовая улица, дом 22,строение 3;Россия;Москва;Бойцовая улица;дом 22,строение 3;генеральный директор;Зыбина анастасия Николаевна;;;7718834781;1,11775E+12
194;ООО «Выставочный Сервис»;63809320;ООО «Выставочный Сервис»;261910;Каширское шоссе, дом 4, корпус 3, квартира XII, комната 4;Россия;Москва;Каширское шоссе;дом 4, корпус 3, квартира XII, комната 4;генеральный директор;Матковская Валентина Васильевна;;;7724948699;5,14775E+12
195;ОБЩЕСТВО С ОГРАНИЧЕННОЙ ОТВЕТСТВЕННОСТЬЮ «ДОМАШНИЙ ИНТЕРЬЕР»;63809321;ООО «Домашний Интерьер»;259684;Николоямская улица, дом 14, строение 1;Россия;Москва;Николоямская улица;дом 14, строение 1;генеральный директор;Зайонц Александр Леонидович;;;7709770002;1,07776E+12
196;ОБЩЕСТВО С ОГРАНИЧЕННОЙ ОТВЕТСТВЕННОСТЬЮ «ЛЮБИТЕЛЬСКАЯ ФУТБОЛЬНАЯ ЛИГА»;63809322;ООО «Любительская футбольная лига»;259466;Лазоревый проезд, дом 26;Россия;Москва;Лазоревый проезд;дом 26;генеральный директор;Смирнов Дмитрий Юрьевич;;;7716600499;1,08775E+12
197;ОБЩЕСТВО С ОГРАНИЧЕННОЙ ОТВЕТСТВЕННОСТЬЮ «МОССПОРТМЕДИАГРУПП»;63809323;ООО «Мосспортмедиагрупп»;219743;Тишинская площадь, дом 1, корпус 1;Россия;Москва;Тишинская площадь;дом 1, корпус 1;генеральный директор;Барабанов Дмитрий Александрович;;;7703670065;1,08775E+12
198;ОБЩЕСТВО С ОГРАНИЧЕННОЙ ОТВЕТСТВЕННОСТЬЮ «МЭНФРАЙДЭЙ»;63809324;ООО «Мэнфрайдэй»;259022;улица Ленинская Слобода, дом 19;Россия;Москва;улица Ленинская Слобода;дом 19;генеральный директор;Львов Максим Александрович;;;7705933400;1,10775E+12
199;ОБЩЕСТВО С ОГРАНИЧЕННОЙ ОТВЕТСТВЕННОСТЬЮ «НАЙК»;63809325;ООО «Найк»;259665;улица Обручева, дом 30/1, корпус 2;Россия;Москва;улица Обручева;дом 30/1, корпус 2;генеральный директор;Луха Кристьян;;;7702345288;1,0377E+12
200;Общество с ограниченной ответственностью «Новое поколение художественной гимнастики»;63809326;ООО «Новое поколение художественной гимнастики»;219607;Дмитровское шоссе, дом 157, строение 12;Россия;Москва;Дмитровское шоссе;дом 157, строение 12;президент;Сиротина Екатерина Сергеевна;;;7727627809;1,07776E+12
201;ОБЩЕСТВО С ОГРАНИЧЕННОЙ ОТВЕТСТВЕННОСТЬЮ «НОЧНАЯ ХОККЕЙНАЯ ЛИГА»;63809327;ООО «Ночная хоккейная лига»;256243;Пятницкая улица, дом 37;Россия;Москва;Пятницкая улица;дом 37;генеральный директор;Макаров Сергей Михайлович;;;7718873580;1,12775E+12
202;ООО «Онлис Рус»;63809328;ООО «Онлис Рус»;261927;проспект Вернадского, дом 24, офис 3;Россия;Москва;проспект Вернадского;дом 24, офис 3;генеральный директор;Никаноров Александр Юрьевич;;;7729691486;1,11775E+12
203;Общество с ограниченной ответственностью «РУСПОРТИНГ»;63809329;ООО «Руспортинг»;261907;Большая Черкизовская улица, дом 125, строение 1;Россия;Москва;Большая Черкизовская улица;дом 125, строение 1;генеральный директор;Алфёров Роман Валерьевич;;;7733735584;1,10775E+12
204;ОБЩЕСТВО С ОГРАНИЧЕННОЙ ОТВЕТСТВЕННОСТЬЮ «СПА КОМПЛЕКТ»;63809330;ООО «Спа комплект»;258998;Семёновский переулок, дом 19;Россия;Москва;Семёновский переулок;дом 19;генеральный директор;Володарский Илья Арнольдович;;;7719189171;1,02774E+12
205;ОБЩЕРОССИЙСКАЯ ОБЩЕСТВЕННАЯ ОРГАНИЗАЦИЯ «ФЕДЕРАЦИЯ ВЕЛОСПОРТА-ШОССЕ, ВЕЛОСПОРТА-ТРЕКА, ВЕЛОСПОРТА-МАУНТИНБАЙКА, ВЕЛОСПОРТА-ВМХ РОССИИ»;63809331;ООО «Федерация велосипедного спорта России»;219201;Лужнецкая набережная, дом 8;Россия;Москва;Лужнецкая набережная;дом 8;президент;Макаров Игорь Викторович;fvsr.ru;cycling@fvsr.ru;7704114448;1,03774E+12
206;Общероссийская общественная организация «Федерация кекусинкай России»;63809332;ООО «Федерация киокусинкай России»;219232;Милютинский переулок, дом 18;Россия;Москва;Милютинский переулок;дом 18;председатель президиума;Бура Андрей Владимирович;;;7704071240;1,03774E+12
207;ОБЩЕРОССИЙСКАЯ ОБЩЕСТВЕННАЯ ОРГАНИЗАЦИЯ «ФЕДЕРАЦИЯ СНОУБОРДА РОССИИ»;63809333;ООО «Федерация сноуборда России»;255804;Лужнецкая набережная, дом 8, корпус 1;Россия;Москва;Лужнецкая набережная;дом 8, корпус 1;президент Федерации;Тихомиров Денис Валерьевич;www.russnowboard.ru;info@russnowboard.ru;7704282178;1,1478E+12
208;ОБЩЕСТВО С ОГРАНИЧЕННОЙ ОТВЕТСТВЕННОСТЬЮ «ФРЕШ АКВАМАГИКА»;63809334;ООО «Фреш Аквамагика»;260662;Нагорная улица, дом 24, корпус 9;Россия;Москва;Нагорная улица;дом 24, корпус 9;генеральный директор;Соколов Вячеслав Алексеевич;;;7727203359;1,15775E+12
209;Общество с ограниченной ответственностью «Центр спортивного и творческого развития «СПЕКТР»;63809335;ООО «ЦЕНТР-СПЕКТР»;219595;Большая Почтовая улица, дом 18/20, корпус 17;Россия;Москва;Большая Почтовая улица;дом 18/20, корпус 17;генеральный директор;Брынин Эдуард Иванович;;;7701954079;1,12775E+12
210;ООО ПЦ «Космический марафон»;63809336;ООО ПЦ «Космический марафон»;261933;город Королев, улица Циолковского, дом 20/22;Россия;Москва;город Королев;улица Циолковского, дом 20/22;генеральный директор;Волков Владимир Петрович;;;5018033567;1,035E+12
211;ОБЩЕСТВО С ОГРАНИЧЕННОЙ ОТВЕТСТВЕННОСТЬЮ «СК-СТАРТ»;63809337;ООО СК «Старт»;261934;Гостиничная улица, дом 7А;Россия;Москва;Гостиничная улица;дом 7А;генеральный директор;Ильин Дмитрий Валерьевич;;;7715986715;5,13775E+12
212;Общество с ограниченной ответственностью «Центральный спортивный клуб «Локомотив»;63809338;ООО ЦСК «Локомотив»;220146;Новая Басманная улица, дом 14, строение 2;Россия;Москва;Новая Басманная улица;дом 14, строение 2;генеральный директор;Попов Александр Владимирович;;;7701793590;1,08775E+12
213;ОБЩЕРОССИЙСКАЯ ОБЩЕСТВЕННАЯ ОРГАНИЗАЦИЯ ИНВАЛИДОВ ВОЙНЫ В АФГАНИСТАНЕ И ВОЕННОЙ ТРАВМЫ - «ИНВАЛИДЫ ВОЙНЫ»;63809339;ОООИВА «Инвалиды войны»;261908;Промышленный проезд, дом 3;Россия;Москва;Промышленный проезд;дом 3;председатель;Чепурной Андрей Геннадьевич;;;7706034808;1,02774E+12
214;Общероссийская общественная физкультурно-спортивная организация «Всероссийская федерация школьного спорта»;63809340;ООФСО «Всероссийская федерация школьного спорта»;259675;Скаковая улица, дом 32, корпус 2;Россия;Москва;Скаковая улица;дом 32, корпус 2;президент;Роднина Ирина Константиновна;;;7714323257;1,1078E+12
215;Общероссийский союз общественных объединений «Федерация глобального таэквон-до (ГТФ) России»;63809341;ОСОО «Федерация глобального таэквон-до (ГТФ) России»;219926;Лихов переулок, дом 8, корпус 1;Россия;Москва;Лихов переулок;дом 8, корпус 1;президент;Топоров Сергей Викторович;;;7707329829;1,0577E+12
216;ПРЕФЕКТУРА СЕВЕРО-ЗАПАДНОГО АДМИНИСТРАТИВНОГО ОКРУГА ГОРОДА МОСКВЫ;63809342;Префектура Северо-Западного административного округа города Москвы;237347;улица Свободы, дом 13, корпус 2;Россия;Москва;улица Свободы;дом 13, корпус 2;Префект Северо-Западного;Дамурчиев Виктор Назарович;;;7733055229;1,02774E+12
217;ПРЕФЕКТУРА ТРОИЦКОГО И НОВОМОСКОВСКОГО АДМИНИСТРАТИВНЫХ ОКРУГОВ ГОРОДА МОСКВЫ;63809343;Префектура Троицкого и Новомосковского административных округов города Москвы;237349;аллея Витте, дом 5;Россия;Москва;аллея Витте;дом 5;префект;Набокин Дмитрий Владимирович;;;7727777459;1,12775E+12
218;ПРЕФЕКТУРА ЮЖНОГО АДМИНИСТРАТИВНОГО ОКРУГА ГОРОДА МОСКВЫ;63809344;Префектура Южного административного округа города Москвы;237344;Автозаводская улица, дом 10;Россия;Москва;Автозаводская улица;дом 10;префект;Челышев Алексей Валентинович;;;7725069330;1,02774E+12
219;Православная религиозная организация «Московская Патриархия Русской Православной Церкви»;63809345;ПРО «Московская Патриархия РПЦ»;259486;Чистый переулок, дом 5;Россия;Москва;Чистый переулок;дом 5;Патриарх Московский и всея Руси;Гундяев Владимир Михайлович;;;7704136152;1,0377E+12
220;АССОЦИАЦИЯ «ПРОФЕССИОНАЛЬНАЯ ФУТБОЛЬНАЯ ЛИГА»;63809346;Профессиональная футбольная Лига (ПФЛ);219852;Народная улица, дом 7;Россия;Москва;Народная улица;дом 7;генеральный директор;Акелькин Николай Петрович;;;7704093117;1,02774E+12
221;РЕГИОНАЛЬНАЯ БЛАГОТВОРИТЕЛЬНАЯ ОБЩЕСТВЕННАЯ ОРГАНИЗАЦИЯ «МОСКОВСКИЙ КОННОСПОРТИВНЫЙ КЛУБ ИНВАЛИДОВ»;63809347;РБОО «Московский конно-спортивный клуб инвалидов»;259037;Стрельбищенский переулок, дом 5;Россия;Москва;Стрельбищенский переулок;дом 5;исполнительный директор;Павлов Евгений Николаевич;;;7703217257;1,03774E+12
222;РБООИ «Радужный мир»;63809348;РБООИ «Радужный мир»;261887;улица Тихая, дом 23, корпус 7;Россия;Москва;улица Тихая;дом 23, корпус 7;президент;Денисенков Александр Иванович;;;7723352342;1,04775E+12
223;Региональная детская общественная организация - Парусный клуб «Гардемарины»;63809349;РДОО Парусный клуб «Гардемарины»;259477;Бакинская улица, дом 22;Россия;Москва;Бакинская улица;дом 22;директор;Андронов Георгий Владимирович;;;7724014339;1,03774E+12
224;Региональная общественная организация содействия развитию подрастающего поколения «Молодежная Морская Лига»;63809569;Региональная общественная организация содействия развитию подрастающего поколения «Молодежная Морская Лига»;259489;Большой Черкасский переулок, дом 7/8, корпус 1Б;Россия;Москва;Большой Черкасский переулок;дом 7/8, корпус 1Б;президент;Вьюгин Сергей Владимирович;;;7710348395;1,03774E+12
225;РОО «Военно-спортивный клуб «Отчизна»;63809351;РОО «Военно-спортивный клуб «Отчизна»;261936;улица Россолимо, дом 17, строение 3;Россия;Москва;улица Россолимо;дом 17, строение 3;председатель;Грудинин Владимир Вячеславович;;;7704280283;1,1278E+12
226;РЕГИОНАЛЬНАЯ ОБЩЕСТВЕННАЯ ОРГАНИЗАЦИЯ «ГОРОДСКАЯ ФЕДЕРАЦИЯ СТРЕЛЬБЫ ИЗ ЛУКА И АРБАЛЕТА»;63809352;РОО «Городская Федерация Стрельбы из лука и арбалета»;259786;Севастопольский проспект, дом 39;Россия;Москва;Севастопольский проспект;дом 39;президент;Воронков Андрей Владимирович;;a_voronkov_@mail.ru;7727499071;1,1478E+12
227;РОО «Динамо» №33;63809353;РОО «Динамо» №33;261903;улица Лесная, дом 6;Россия;Москва;улица Лесная;дом 6;председатель;Шабуневич Олег Васильевич;;;7710481654;1,1478E+12
228;РЕГИОНАЛЬНАЯ ОБЩЕСТВЕННАЯ ОРГАНИЗАЦИЯ «КЛУБ «ПАРСЕК»;63809354;РОО «Клуб «Парсек»;259473;улица Введенского, дом 1;Россия;Москва;улица Введенского;дом 1;председатель совета;Попов Михаил Сергеевич;;;7728134676;1,03774E+12
229;Региональная общественная организация «Московское городское физкультурно-спортивное общество «Спартак»;63809355;РОО «МГФСО «Спартак»;259465;Озерковская набережная, дом 50, корпус 1;Россия;Москва;Озерковская набережная;дом 50, корпус 1;председатель совета-президент;Мишурис Владилен Яковлевич;;;7708053122;1,02774E+12
230;РЕГИОНАЛЬНАЯ ОБЩЕСТВЕННАЯ ОРГАНИЗАЦИЯ«МОСКОВСКАЯ ГОРОДСКАЯ ФЕДЕРАЦИЯ КОМПЛЕКСНОГО И ПРИКЛАДНОГО КИНОЛОГИЧЕСКОГО СПОРТА»;63809356;РОО «Московская городская Федерация комплексного и прикладного кинологического спорта»;260725;проезд Соломенной Сторожки, дом 16, корпус А;Россия;Москва;проезд Соломенной Сторожки;дом 16, корпус А;вице-президент;Большакова Варвара Максимовна;;;7713179900;1,0377E+12
231;РЕГИОНАЛЬНАЯ ОБЩЕСТВЕННАЯ ОРГАНИЗАЦИЯ «МОСКОВСКАЯ ГОРОДСКАЯ ФЕДЕРАЦИЯ СПОРТИВНОГО ПЭЙНТБОЛА»;63809357;РОО «Московская городская федерация спортивного пэйнтбола»;259467;Беломорская улица, дом 6А;Россия;Москва;Беломорская улица;дом 6А;президент;Железняк Александр Дмитриевич;;;7728218693;1,02774E+12
232;Региональная общественная организация «Московская Конфедерация бильярдного спорта»;63809358;РОО «Московская Конфедерация бильярдного спорта»;219192;улица Малая Ордынка, дом 35, корпус 2;Россия;Москва;улица Малая Ордынка;дом 35, корпус 2;президент;Иванов Евгений Борисович;www.mosbilliard.ru;info@mosbilliard.ru;7705514858;1,0577E+12
233;Региональная общественная организация «Московская спортивная федерация прыжков на батуте»;63809359;РОО «Московская спортивная федерация прыжков на батуте»;219246;Отрадная улица, дом 15;Россия;Москва;Отрадная улица;дом 15;президент;Головастиков Евгений Сергеевич;мосбатут.рф;batutico@yandex.ru;7715490067;1,1178E+12
234;РЕГИОНАЛЬНАЯ ОБЩЕСТВЕННАЯ ОРГАНИЗАЦИЯ «МОСКОВСКАЯ ФЕДЕРАЦИЯ АМЕРИКАНСКОГО ФУТБОЛА»;63809360;РОО «Московская федерация американского футбола»;220224;улица 800-летия Москвы, дом 30;Россия;Москва;улица 800-летия Москвы;дом 30;президент;Иванов Виктор Павлович;;;7713049160;1,0277E+12
235;ОБЩЕСТВЕННАЯ ОРГАНИЗАЦИЯ «МОСКОВСКАЯ ФЕДЕРАЦИЯ АРМСПОРТА»;63809361;РОО «Московская федерация армспорта»;259462;Сиреневый бульвар, дом 4;Россия;Москва;Сиреневый бульвар;дом 4;президент;Махмудов Мехтихан Магаметханович;;;7719169584;1,03774E+12
236;РЕГИОНАЛЬНАЯ ОБЩЕСТВЕННАЯ ОРГАНИЗАЦИЯ «МОСКОВСКАЯ ФЕДЕРАЦИЯ ВОЛЕЙБОЛА»;63809362;РОО «Московская федерация волейбола»;219298;улица Удальцова, дом 67;Россия;Москва;улица Удальцова;дом 67;первый вице-президент;Питерцев Юрий Викторович;www.mf-volley.ru;info_mfv@mail.ru;7729437553;1,0678E+12
237;РЕГИОНАЛЬНАЯ ОБЩЕСТВЕННАЯ ОРГАНИЗАЦИЯ «МОСКОВСКАЯ ФЕДЕРАЦИЯ ВОЛЬНОЙ БОРЬБЫ»;63809363;РОО «Московская федерация вольной борьбы»;219949;Милютинский переулок, дом 18;Россия;Москва;Милютинский переулок;дом 18;президент;Суханов Александр Дмитриевич;;;7708044600;1,03774E+12
238;РЕГИОНАЛЬНАЯ ОБЩЕСТВЕННАЯ ОРГАНИЗАЦИЯ ПОПУЛЯРИЗАЦИИ И РАЗВИТИЯ МАССОВОГО СПОРТА «МОСКОВСКАЯ ФЕДЕРАЦИЯ ВОРКАУТА»;63809364;РОО «Московская Федерация воркаута»;260719;Воробьёвское шоссе, дом 4А;Россия;Москва;Воробьёвское шоссе;дом 4А;президент;Черкасов Данила Николаевич;;;7729452128;1,1378E+12
239;Региональная общественная организация «Московская федерация гиревого спорта»;63809365;РОО «Московская федерация гиревого спорта»;219208;улица Строителей, дом 4, корпус 6;Россия;Москва;улица Строителей;дом 4, корпус 6;президент;Шутой Марк Веньяминович;www.mosfgs.ru;mosfgs@mosfgs.ru;7736243164;1,0778E+12
240;Региональная общественная организация «Московская Федерация Го (Бадук)»;63809366;РОО «Московская Федерация Го (Бадук) »;219210;улица Гиляровского, дом 54, корпус 1;Россия;Москва;улица Гиляровского;дом 54, корпус 1;президент МФГ(Б);ГУЛЕВИЧ Александр Антонович;www.mfg.go-igo.ru;gulevich_alex@mail.ru;7702216317;1,03774E+12
241;РЕГИОНАЛЬНАЯ ОБЩЕСТВЕННАЯ ОРГАНИЗАЦИЯ «МОСКОВСКАЯ ФЕДЕРАЦИЯ ДЖИУ-ДЖИТСУ»;63809367;РОО «Московская федерация джиу-джитсу»;219221;Профсоюзная улица, дом 66, корпус 1;Россия;Москва;Профсоюзная улица;дом 66, корпус 1;президент;Крутовских Сергей Сергеевич;;;7728219626;1,0277E+12
242;РЕГИОНАЛЬНАЯ ФИЗКУЛЬТУРНО-СПОРТИВНАЯ ОБЩЕСТВЕННАЯ ОРГАНИЗАЦИЯ «МОСКОВСКАЯ ФЕДЕРАЦИЯ КЕКУСИН-КАН КАРАТЭ-ДО»;63809368;РОО «Московская федерация кёкусин-кан каратэ-до»;219940;Большая Дорогомиловская улица, дом 9, корпус 2;Россия;Москва;Большая Дорогомиловская улица;дом 9, корпус 2;президент;Радченко Павел Викторович;;;7730181144;1,0678E+12
243;Региональная общественная организация «Московская федерация настольного тенниса»;63809369;РОО «Московская федерация настольного тенниса»;219701;Милютинский переулок, дом 18, строение 4;Россия;Москва;Милютинский переулок;дом 18, строение 4;президент;Пилип Марк Михайлович;;mttf@bk.ru;7708236447;1,0778E+12
244;РЕГИОНАЛЬНАЯ ОБЩЕСТВЕННАЯ ОРГАНИЗАЦИЯ «МОСКОВСКАЯ ФЕДЕРАЦИЯ ПАРУСНОГО СПОРТА»;63809370;РОО «Московская федерация парусного спорта»;235758;Милютинский переулок, дом 18, корпус 4;Россия;Москва;Милютинский переулок;дом 18, корпус 4;исполнительный директор;Московцев Сергей Борисович;www.mfps.ru;mfps@bk.ru;7708235683;1,0678E+12
245;Региональная общественная организация «Московская федерация рукопашного боя и традиционного каратэ» (стиль фудокан каратэ-до);63809371;РОО «Московская федерация рукопашного боя и традиционного каратэ»;259659;улица Маршала Захарова, дом 23;Россия;Москва;улица Маршала Захарова;дом 23;ликвидатор;Коваль Алексей Сергеевич;;;7731042545;1,02774E+12
246;Региональная общественная организация «Московская федерация рыболовного спорта»;63809396;РОО «Московская федерация рыболовного спорта»;259471;улица Правды, дом 17/19;Россия;Москва;улица Правды;дом 17/19;президент;Козлов Александр Николаевич;;subal2004@yandex.ru;7714319155;1,0577E+12
247;РЕГИОНАЛЬНАЯ ОБЩЕСТВЕННАЯ ОРГАНИЗАЦИЯ «МОСКОВСКАЯ ФЕДЕРАЦИЯ ТАНЦЕВАЛЬНОГО СПОРТА»;63809397;РОО «Московская федерация танцевального спорта»;219271;Волгоградский проспект, дом 46/15;Россия;Москва;Волгоградский проспект;дом 46/15;президент;Гулай Валерий Михайлович;;;7723161242;1,02774E+12
248;Региональная общественная организация «Московская Федерация ТХЭКВОНДО»;63809398;РОО «Московская федерация тхэквондо»;219277;улица Раменки, дом 19;Россия;Москва;улица Раменки;дом 19;президент;Терехов Анатолий Константинович;;;7729393031;1,03774E+12
249;Региональная общественная организация «Московская федерация футбола»;63809399;РОО «Московская федерация футбола»;219756;Милютинский переулок, дом 18;Россия;Москва;Милютинский переулок;дом 18;президент;Анохин Сергей Вячеславович;www.mosff.ru;mail@mosff.ru;7708021184;1,03774E+12
250;РЕГИОНАЛЬНАЯ ОБЩЕСТВЕННАЯ ОРГАНИЗАЦИЯ «МОСКОВСКАЯ ФЕДЕРАЦИЯ ХОККЕЯ НА ТРАВЕ»;63809400;РОО «Московская федерация хоккея на траве»;235739;Крылатская улица, дом 2, корпус 19;Россия;Москва;Крылатская улица;дом 2, корпус 19;генеральный директор-вице-президент;Базаев Владимир Викторович;;;7731005092;1,0978E+12
251;РЕГИОНАЛЬНАЯ ОБЩЕСТВЕННАЯ ОРГАНИЗАЦИЯ «МОСКОВСКАЯ ФЕДЕРАЦИЯ ЭСТЕТИЧЕСКОЙ ГИМНАСТИКИ»;63809401;РОО «Московская федерация эстетической гимнастики»;235743;Одесская улица, дом 14, корпус 1;Россия;Москва;Одесская улица;дом 14, корпус 1;президент;Краснов Александр Викторович;;madonna.sdg@mail.ru;7710476661;1,0778E+12
252;РЕГИОНАЛЬНАЯ ОБЩЕСТВЕННАЯ ОРГАНИЗАЦИЯ «МОСКОВСКИЙ ФИЗКУЛЬТУРНО-СПОРТИВНЫЙ КЛУБ «СЕМЬЯ»;63809402;РОО «Московский физкультурно-спортивный клуб «Семья»;259140;7-я Парковая улица, дом 16, корпус 1;Россия;Москва;7-я Парковая улица;дом 16, корпус 1;президент;Агеева Екатерина Петровна;;;7719188516;1,0377E+12
253;РЕГИОНАЛЬНАЯ ОБЩЕСТВЕННАЯ ОРГАНИЗАЦИЯ МОСКОВСКИЙ ФУТБОЛЬНО-СПОРТИВНЫЙ КЛУБ ВЕТЕРАНОВ ВОЙНЫ В АФГАНИСТАНЕ И УЧАСТНИКОВ ВОЕННЫХ КОНФЛИКТОВ «ВЕТЕРАН-СПОРТ»;63809570;РОО «Московский футбольно-спортивный клуб ветеранов войны в Афганистане и участников военных конфликтов «Ветеран-спорт»;259480;Зубовский бульвар, дом 2-4, корпус 2;Россия;Москва;Зубовский бульвар;дом 2-4, корпус 2;председатель ОРГ-И;Матиевич Александр Аркадьевич;;;7704204564;1,02774E+12
254;РЕГИОНАЛЬНАЯ ОБЩЕСТВЕННАЯ ОРГАНИЗАЦИЯ «СОДРУЖЕСТВО ВЕТЕРАНОВ РЕГБИ - «ЗОЛОТЫЕ СТАРИКИ»;63809404;РОО «Содружество ветеранов регби - «Золотые старики»;259475;улица Алабяна, дом 3;Россия;Москва;улица Алабяна;дом 3;президент;Дайнеко Юрий Викторович;;;7743068925;1,03774E+12
255;Региональная общественная организация «Спортивная Федерация «Универсальный бой»;63809405;РОО «Спортивная Федерация «Универсальный бой»;235764;Лодочная улица, дом 9, корпус 4;Россия;Москва;Лодочная улица;дом 9, корпус 4;1-ый вице-президент;Медведев Юрий Игоревич;www.mfuf.ru;moscowfuf@mail.ru;7733184200;1,0978E+12
256;РЕГИОНАЛЬНАЯ ОБЩЕСТВЕННАЯ ОРГАНИЗАЦИЯ «СПОРТИВНАЯ ФЕДЕРАЦИЯ ДАРТС В ГОРОДЕ МОСКВЕ»;63809406;РОО «Спортивная Федерация Дартс в городе Москве»;260627;улица Викторенко, дом 8, корпус А;Россия;Москва;улица Викторенко;дом 8, корпус А;председатель;Сазонов Сергей Алексеевич;;sazonovmoscow@gmail.com;7714323000;1,1078E+12
257;РЕГИОНАЛЬНАЯ ОБЩЕСТВЕННАЯ ОРГАНИЗАЦИЯ «СПОРТИВНАЯ ФЕДЕРАЦИЯ ПРЫЖКОВ В ВОДУ ГОРОДА МОСКВЫ»;63809407;РОО «Спортивная федерация прыжков в воду города Москвы»;219245;Балаклавский проспект, дом 18, корпус 1;Россия;Москва;Балаклавский проспект;дом 18, корпус 1;президент;Гальперин Глеб Сергеевич;;glebdiving@gmail.com;7720286469;1,0978E+12
258;Региональная общественная организация «Спортивная федерация тяжелой атлетики города Москвы»;63809408;РОО «Спортивная федерация тяжелой атлетики города Москвы»;219279;Анадырский проезд, дом 51;Россия;Москва;Анадырский проезд;дом 51;президент;Абдулмеджидов Максим Мугудинович;www.swfm.ru;karacharovskaya@mail.ru;7716194670;1,03774E+12
259;Региональная общественная организация «Спортивный клуб «Альфа-Битца»;63809409;РОО «Спортивный клуб «Альфа-Битца»;260846;Старобитцевская улица, дом 23, корпус 3;Россия;Москва;Старобитцевская улица;дом 23, корпус 3;председатель клуба;Бочаров Геннадий Иванович;;;7727272659;1,0577E+12
260;Региональная общественная организация «Федерация армспорта города Москвы»;63809410;РОО «Федерация армспорта города Москвы»;235387;улица Космонавтов, дом 18, корпус 2;Россия;Москва;улица Космонавтов;дом 18, корпус 2;президент;Петров Андрей Михайлович;www.armsport-rus.ru;armsport-mos@mail.ru;7717149470;1,04775E+12
261;РЕГИОНАЛЬНАЯ ОБЩЕСТВЕННАЯ ОРГАНИЗАЦИЯ «ФЕДЕРАЦИЯ БАСКЕТБОЛА ГОРОДА ЗЕЛЕНОГРАДА»;63809411;РОО «Федерация баскетбола города Зеленограда»;220135;город Зеленоград, корпус 450;Россия;Москва;город Зеленоград;корпус 450;председатель;Рымарчук Юрий Александрович;;;7735128218;1,0678E+12
262;Региональная общественная организация «Федерация баскетбола города Москвы»;63809412;РОО «Федерация баскетбола города Москвы»;235388;Милютинский переулок, дом 18, корпус 4;Россия;Москва;Милютинский переулок;дом 18, корпус 4;президент;Архангельский Андрей Юрьевич;www.mosbasket.ru;info@mosbasket.ru;7708236856;1,0878E+12
263;Региональная общественная организация «Федерация биатлона города Москвы»;63809413;РОО «Федерация биатлона города Москвы»;219190;Летниковская улица, дом 11/10, строение 5;Россия;Москва;Летниковская улица;дом 11/10, строение 5;президент;Малин Владимир Владимирович;;biathlonmoscow@mail.ru;7725254975;1,0778E+12
264;РЕГИОНАЛЬНАЯ ОБЩЕСТВЕННАЯ ОРГАНИЗАЦИЯ «ФЕДЕРАЦИЯ БОДИБИЛДИНГА И ФИТНЕСА»;63809414;РОО «Федерация бодибилдинга и фитнеса»;234448;Новомарьинская улица, дом 17;Россия;Москва;Новомарьинская улица;дом 17;вице-президент;Каменский Вячеслав Владимирович;www.fbfm.ru;admin@fbfm.ru;7723199574;1,02774E+12
265;Региональная общественная организация «Федерация бокса города Москвы»;63809415;РОО «Федерация бокса города Москвы»;234449;Малый Кисловский переулок, дом 7, корпус 1;Россия;Москва;Малый Кисловский переулок;дом 7, корпус 1;президент;Ансимов Юрий Николаевич;www.mos-boxing.ru;fbgm@yandex.ru;7703384642;1,04775E+12
266;РЕГИОНАЛЬНАЯ ОБЩЕСТВЕННАЯ ОРГАНИЗАЦИЯ «ФЕДЕРАЦИЯ ВОДНОГО ПОЛО ГОРОДА МОСКВЫ»;63809416;РОО «Федерация водного поло города Москвы»;235392;Нарышкинская аллея, дом 5, строение 2;Россия;Москва;Нарышкинская аллея;дом 5, строение 2;президент;Герасимов Сергей Яковлевич;www.moswaterpolo.ru;moswaterpolo@gmail.com;7702276595;1,03774E+12
267;Региональная общественная организация «Федерация воднолыжного спорта и вейкбординга города Москвы»;63809417;РОО «Федерация воднолыжного спорта и вейкбординга города Москвы»;220076;проспект Мира, дом 105, строение 1;Россия;Москва;проспект Мира;дом 105, строение 1;президент;Ригин Андрей Евгеньевич;;;7717162223;1,1178E+12
268;РЕГИОНАЛЬНАЯ ОБЩЕСТВЕННАЯ ОРГАНИЗАЦИЯ «ФЕДЕРАЦИЯ ГОЛЬФА В ГОРОДЕ МОСКВЕ»;63809418;РОО «Федерация гольфа в городе Москве»;235393;улица Довженко, дом 6;Россия;Москва;улица Довженко;дом 6;председатель;Черёмин Сергей Евгеньевич;;federation.moscow.golf@gmail.com;7729452417;1,1478E+12
269;Региональная общественная организация «Федерация горнолыжного спорта и сноуборда города Москвы»;63809419;РОО «Федерация горнолыжного спорта и сноуборда города Москвы»;235394;Сокольническая площадь, дом 4А;Россия;Москва;Сокольническая площадь;дом 4А;президент;Рябов Дмитрий Юрьевич;www.fgssm.ru;fgssm@mail.ru;7718746359;1,1178E+12
270;Региональная общественная орагнизация «Федерация городошного спорта города Москвы»;63809420;РОО «Федерация городошного спорта города Москвы»;235395;Тушинская улица, дом 16;Россия;Москва;Тушинская улица;дом 16;президент;Проц Михаил Ильич;;;7733182731;1,0577E+12
271;РЕГИОНАЛЬНАЯ ОБЩЕСТВЕННАЯ ОРГАНИЗАЦИЯ «ФЕДЕРАЦИЯ ГРЕБНОГО СПОРТА В ГОРОДЕ МОСКВЕ»;63809421;РОО «Федерация гребного спорта в городе Москве»;235385;Лётная улица, дом 99А;Россия;Москва;Лётная улица;дом 99А;президент;Сазонов Александр Юрьевич;;fag.moskva@yandex.ru;7703351742;1,02774E+12
272;Региональная общественная организация «Федерация Дзюдо»;63809422;РОО «Федерация дзюдо»;219815;Мытная улица, дом 42/44;Россия;Москва;Мытная улица;дом 42/44;генеральный директор;Платонов Владимир Михайлович;;;7706146967;1,0377E+12
273;РЕГИОНАЛЬНАЯ ОБЩЕСТВЕННАЯ ОРГАНИЗАЦИЯ «ФЕДЕРАЦИЯ КАПОЭЙРА»;63809423;РОО «Федерация капоэйра»;235398;Снежная улица, дом 13;Россия;Москва;Снежная улица;дом 13;президент;Белов Роман Владимирович;www.kapoeira.ru;press@kapoeira.ru;7714318930;1,04775E+12
274;РЕГИОНАЛЬНАЯ ОБЩЕСТВЕННАЯ ОРГАНИЗАЦИЯ «ФЕДЕРАЦИЯ КЁРЛИНГА В ГОРОДЕ МОСКВЕ»;63809424;РОО «Федерация кёрлинга в городе Москве»;219227;улица Академика Анохина, дом 11А;Россия;Москва;улица Академика Анохина;дом 11А;президент;Морозов Алексей Михайлович;;skalalb@mail.ru;7729452311;1,1378E+12
275;Региональная общественная организация «Федерация конного спорта города Москвы»;63809425;РОО «Федерация конного спорта города Москвы»;235401;Балаклавский проспект, дом 33, корпус 1;Россия;Москва;Балаклавский проспект;дом 33, корпус 1;президент;Ротенберг Карина Юрьевна;www.fksm.ork;fksm@mail.ru;7727268331;1,04775E+12
276;РЕГИОНАЛЬНАЯ ОБЩЕСТВЕННАЯ ОРГАНИЗАЦИЯ «ФЕДЕРАЦИЯ КОНЬКОБЕЖНОГО СПОРТА»;63809426;РОО «Федерация конькобежного спорта»;235402;Милютинский переулок, дом 18;Россия;Москва;Милютинский переулок;дом 18;председатель;Кидяев Александр Степанович;;;7708018505;1,02774E+12
277;РЕГИОНАЛЬНАЯ ОБЩЕСТВЕННАЯ ОРГАНИЗАЦИЯ «ФЕДЕРАЦИЯ ЛЕГКОЙ АТЛЕТИКИ Г.МОСКВЫ»;63809427;РОО «Федерация легкой атлетики г. Москвы»;235403;улица Советской Армии, дом 6, корпус 1;Россия;Москва;улица Советской Армии;дом 6, корпус 1;председатель;Мастеркова Светлана Александровна;www.mosatletika.ru;masterkova-s@yandex.ru;7708046132;1,02774E+12
278;Региональная общественная организация «Федерация лыжных гонок города Москвы»;63809428;РОО «Федерация лыжных гонок города Москвы»;235404;Милютинский переулок, дом 18, корпус 4;Россия;Москва;Милютинский переулок;дом 18, корпус 4;президент;Головатов Михаил Васильевич;www.flgm.ru;info@flgm.ru;7708094383;1,0277E+12
279;Региональная общественная организация «Федерация пауэрлифтинга города Москвы»;63809429;РОО «Федерация пауэрлифтинга города Москвы»;235759;Барвихинская улица, дом 20;Россия;Москва;Барвихинская улица;дом 20;президент;Бутусов Игорь Владимирович;www.fpr-info.ru/moskva.htm;fpm@bmail.ru;7731016023;1,0978E+12
280;Региональная общественная организация «Федерация плавания города Москвы»;63809430;РОО «Федерация плавания города Москвы»;259443;Судостроительная улица, дом 9;Россия;Москва;Судостроительная улица;дом 9;президент;Филонов Алексей Юрьевич;;;7725350654;1,1178E+12
281;Региональная общественная организация «Федерация рафтинга города Москвы»;63809431;РОО «Федерация рафтинга города Москвы»;235722;проспект Мира, дом 186, корпус 2;Россия;Москва;проспект Мира;дом 186, корпус 2;президент;Новиков Александр Серафимович;www.rafting.msk.ru;rafting_moscow2012@mail.ru;7716450317;1,1178E+12
282;РЕГИОНАЛЬНАЯ ОБЩЕСТВЕННАЯ ОРГАНИЗАЦИЯ «ФЕДЕРАЦИЯ РЕГБИСТОВ»;63809432;РОО «Федерация регбистов Москвы»;219295;Селезнёвская улица, дом 13А;Россия;Москва;Селезнёвская улица;дом 13А;президент;Балашов Евгений Борисович;;;7707281408;1,03774E+12
283;РЕГИОНАЛЬНАЯ ОБЩЕСТВЕННАЯ ОРГАНИЗАЦИЯ «ФЕДЕРАЦИЯ САМБО МОСКВЫ»;63809433;РОО «Федерация самбо Москвы»;235724;4-й Самотёчный переулок, дом 9;Россия;Москва;4-й Самотёчный переулок;дом 9;исполнительный директор;Гавриленков Александр Юрьевич;www.mossambo.ru;mossambo@mail.ru;7733182001;1,04775E+12
284;Региональная общественная организация «Федерация синхронного плавания города Москвы»;63809434;РОО «Федерация синхронного плавания города Москвы»;235726;Олимпийский проспект, дом 16, корпус 1;Россия;Москва;Олимпийский проспект;дом 16, корпус 1;президент;Власенко Алексей Викторович;;;7702470190;1,1178E+12
285;РОО «Федерация скоростного спуска на коньках»;63809435;РОО «Федерация скоростного спуска на коньках»;261904;улица Штурвальная, дом 10, корпус 1, квартира 187;Россия;Москва;улица Штурвальная;дом 10, корпус 1, квартира 187;президент;Крюков Павел Витальевич;;;7733242476;1,1577E+12
286;Региональная общественная организация «Федерация смешанного боевого единоборства ММА»;63809436;РОО «Федерация смешанного боевого единоборства ММА»;235727;Октябрьская улица, дом 38, строение 1;Россия;Москва;Октябрьская улица;дом 38, строение 1;президент;Кузнецов Дмитрий Валериевич;www.moscow-mma.ru;mma.moscowfed@gmail.com;7715492071;1,1378E+12
287;РЕГИОНАЛЬНАЯ ОБЩЕСТВЕННАЯ ОРГАНИЗАЦИЯ «ФЕДЕРАЦИЯ СОВРЕМЕННОГО ПЯТИБОРЬЯ»;63809437;РОО «Федерация современного пятиборья»;259331;улица Верхняя Масловка, дом 28, корпус 2;Россия;Москва;улица Верхняя Масловка;дом 28, корпус 2;исполнительный директор;Старостина Олеся Федоровна;www.moscowpentathlon.ru;moscowpentathlon@mail.ru;7714401579;1,1278E+12
288;РЕГИОНАЛЬНАЯ ОБЩЕСТВЕННАЯ ОРГАНИЗАЦИЯ «ФЕДЕРАЦИЯ СОФТБОЛА ГОРОДА МОСКВЫ»;63809438;РОО «Федерация софтбола города Москвы»;219293;улица Перерва, дом 52, корпус 1;Россия;Москва;улица Перерва;дом 52, корпус 1;президент;Ястребов Олег Александрович;;;7723356682;1,0577E+12
289;РЕГИОНАЛЬНАЯ ОБЩЕСТВЕННАЯ ОРГАНИЗАЦИЯ «ФЕДЕРАЦИЯ СПОРТИВНОГО ТУРИЗМА - ОБЪЕДИНЕНИЕ ТУРИСТОВ МОСКВЫ»;63809439;РОО «Федерация спортивного туризма - объединение туристов Москвы»;235735;Садовая-Кудринская улица, дом 4;Россия;Москва;Садовая-Кудринская улица;дом 4;президент;Сазонов Виктор Евгеньевич;www.fst-otm.net;fst-otm@mail.ru;7703307430;1,03774E+12
290;Региональная общественная организация «Федерация спортивной акробатики г. Москвы»;63809440;РОО «Федерация спортивной акробатики г. Москвы»;235731;3-я Радиальная улица, дом 8;Россия;Москва;3-я Радиальная улица;дом 8;президент;Сеничев Виктор Викторович;www.acrobatica-moscow.ru;oksanasenicheva@mail.ru;7719128877;1,0377E+12
291;Региональная общественная организация «Федерация спортивной аэробики и фитнес - аэробики города Москвы»;63809441;РОО «Федерация спортивной аэробики и фитнес-аэробики города Москвы»;235732;Милютинский переулок, дом 18;Россия;Москва;Милютинский переулок;дом 18;президент;Мазанова Ирина Михайловна;;mazanova-ira@mail.ru;7708117721;1,02774E+12
292;Региональная общественная организация «Федерация спортивной борьбы города Москвы»;63809442;РОО «Федерация спортивной борьбы города Москвы»;220184;улица Арбат, дом 36/2, корпус 1;Россия;Москва;улица Арбат;дом 36/2, корпус 1;президент организации;Мамиашвили Виктор Геразиевич;;;7708046090;1,0377E+12
293;РЕГИОНАЛЬНАЯ ОБЩЕСТВЕННАЯ ОРГАНИЗАЦИЯ «ФЕДЕРАЦИЯ СПОРТИВНОЙ ГИМНАСТИКИ»;63809443;РОО «Федерация спортивной гимнастики»;257883;Олимпийский проспект, дом 16, корпус 1;Россия;Москва;Олимпийский проспект;дом 16, корпус 1;президент;Иншаков Александр Иванович;;;7702330933;1,03774E+12
294;Региональная общественная организация «Федерация спортивно-прикладного и служебного собаководства»;63809444;РОО «Федерация спортивно-прикладного и служебного собаководства»;235734;1-й Магистральный тупик, дом 11, строение 10;Россия;Москва;1-й Магистральный тупик;дом 11, строение 10;вице-президент;Насонов Михаил Иванович;;andrei.pobukovsky@toplegal.ru;7714400720;1,1178E+12
295;РЕГИОНАЛЬНАЯ ОБЩЕСТВЕННАЯ ОРГАНИЗАЦИЯ «ФЕДЕРАЦИЯ СТРЕЛЬБЫ ИЗ АРБАЛЕТА»;63809445;РОО «Федерация стрельбы из арбалета»;235737;улица Ильинка, дом 4;Россия;Москва;улица Ильинка;дом 4;исполнительный директор;Лесников Василий Алексеевич;;;7710395331;1,0577E+12
296;РЕГИОНАЛЬНАЯ ОБЩЕСТВЕННАЯ ОРГАНИЗАЦИЯ «ФЕДЕРАЦИЯ СТРЕЛЬБЫ ИЗ ЛУКА ГОРОДА МОСКВЫ»;63809446;РОО «Федерация стрельбы из лука города Москвы»;219805;9-я Северная линия, дом 1Б, корпус 1;Россия;Москва;9-я Северная линия;дом 1Б, корпус 1;президент;Селиванов Владимир Алексеевич;;;7715397822;1,04775E+12
297;Региональная общественная организация «Федерация сумо города Москвы»;63809447;РОО «Федерация сумо города Москвы»;235762;улица Новый Арбат, дом 21, корпус 1;Россия;Москва;улица Новый Арбат;дом 21, корпус 1;президент;Куринной Игорь Игоревич;;;7704274160;1,0778E+12
298;РЕГИОНАЛЬНАЯ ОБЩЕСТВЕННАЯ ОРГАНИЗАЦИЯ «ФЕДЕРАЦИЯ ТАЙСКОГО БОКСА ГОРОДА МОСКВЫ»;63809448;РОО «Федерация тайского бокса города Москвы»;219269;поселение Московский, 3-й микрорайон, дом 11, к.А;Россия;Москва;поселение Московский;3-й микрорайон, дом 11, к.А;президент;Дрозд Григорий Анатольевич;;;7751500176;1,1378E+12
299;Региональная общественная организация «Федерация фигурного катания на коньках города Москвы»;63809449;РОО «Федерация фигурного катания на коньках города Москвы»;235767;проспект Мира, дом 18;Россия;Москва;проспект Мира;дом 18;президент Федерации;Рабер Ирина Яковлевна;www.ffkm.ru;;7704212565;1,0277E+12
300;РЕГИОНАЛЬНАЯ ОБЩЕСТВЕННАЯ ОРГАНИЗАЦИЯ «ФЕДЕРАЦИЯ ХОККЕЙ-СЛЕДЖ ГОРОДА МОСКВЫ»;63809450;РОО «Федерация хоккей-следж г. Москвы»;259033;Ленинский проспект, дом 4, строение 1А;Россия;Москва;Ленинский проспект;дом 4, строение 1А;президент;Егоров Анатолий Лаврентьевич;;;7706470547;1,1278E+12
301;РОО «Федерация хоккея г. Москвы»;63809451;РОО «Федерация хоккея г. Москвы»;235738;Милютинский переулок, дом 18;Россия;Москва;Милютинский переулок;дом 18;президент;Менделеев Сергей Владиславович;www.fhmoscow.com;fhmoscow@mail.ru;7708046206;1,03774E+12
302;Региональная общественная организация «Федерация художественной гимнастики города Москвы»;63809372;РОО «Федерация художественной гимнастики города Москвы»;235740;Лужнецкая набережная, дом 8;Россия;Москва;Лужнецкая набережная;дом 8;президент;Гурьев Андрей Андреевич;www.fhgm.ru;info@fhgm.ru;7729441937;1,1178E+12
303;РРЕГИОНАЛЬНАЯ ОБЩЕСТВЕННАЯ ОРГАНИЗАЦИЯ «ФИЗКУТУРНО-СПОРТИВНАЯ ОРГАНИЗАЦИЯ«СПОРТ»;63809373;РОО «Физкультурно-спортивная организация «Спорт»;258997;Волгоградский проспект, дом 11;Россия;Москва;Волгоградский проспект;дом 11;председатель правления;Черных Илья Сергеевич;;;7709324174;1,03774E+12
304;Автономная некоммерческая организация «Физкультурно-спортивная организация «Спорт»;63809374;РОО «ФСО «Спорт»;219737;Туристская улица, дом 24, корпус 2;Россия;Москва;Туристская улица;дом 24, корпус 2;генеральный директор;Боков Евгений Викторович;;;7733190179;1,1178E+12
305;РЕГИОНАЛЬНАЯ ОБЩЕСТВЕННАЯ ОРГАНИЗАЦИЯ «МОСКОВСКИЙ СОЮЗ ВЕТЕРАНОВ ДЗЮДО И САМБО»;63809375;РОО Московский союз ветеранов дзюдо и самбо;220069;Воронцовская улица, дом 35Б, корпус 2;Россия;Москва;Воронцовская улица;дом 35Б, корпус 2;исполнительный директор;Беридзе Борис Шалвович;;;7709444136;1,1078E+12
306;Региональная общественная организация инвалидов «Московская городская федерация физической культуры, спорта и туризма лиц с поражением опорно-двигательного аппарата»;63809561;РООИ «Московская городская федерация физической культуры, спорта и туризма лиц с поражением опорно-двигательного аппарата»;257963;улица Бахрушина, дом 21/23, корпус 5;Россия;Москва;улица Бахрушина;дом 21/23, корпус 5;президент;Виноградов Виктор Валентинович;;;7705518884;1,0778E+12
307;Региональное отделение Общероссийской общественно-государственной организации «Добровольное общество содействия армии, авиации и флоту России» города Москвы;63809377;РОООГО «ДОСААФ России» г. Москвы;259464;Поклонная улица, дом 11, корпус 1А;Россия;Москва;Поклонная улица;дом 11, корпус 1А;председатель Регионального отделения;Литвинов Сергей Иванович;;;7730183864;1,1078E+12
308;КОММЕРЧЕСКИЙ БАНК «РЕГИОНАЛЬНО-ОТРАСЛЕВОЙ СПЕЦИАЛИЗИРОВАННЫЙ АВТОПРОМЫШЛЕННЫЙ БАНК» (ОБЩЕСТВО С ОГРАНИЧЕННОЙ ОТВЕТСТВЕННОСТЬЮ);63809378;Росавтобанк;220301;Зоологическая улица, дом 26, корпус 2;Россия;Москва;Зоологическая улица;дом 26, корпус 2;председатель правления;Пешков Вадим Игоревич;;;7717004724;1,0277E+12
309;Общероссийский союз общественных объединений «Российский Союз боевых искусств»;63809379;Российский союз боевых искусств;219187;Нижняя Красносельская улица, дом 4;Россия;Москва;Нижняя Красносельская улица;дом 4;сопредседатель;Кириенко Сергей Владиленович;;;7709439009;1,0577E+12
310;Российский Фонд развития дополнительного профессионального образования (некоммерческая организация);63809380;Российский Фонд развития дополнительного профессионального образования (некоммерческая организация);259673;Люсиновская улица, дом 51;Россия;Москва;Люсиновская улица;дом 51;президент;Новиков Юрий Валериевич;;;7725082010;1,02774E+12
311;РЕГИОНАЛЬНЫЙ ОБЩЕСТВЕННЫЙ ФОНД ПОДДЕРЖКИ ГЕРОЕВ СОВЕТСКОГО СОЮЗА И ГЕРОЕВ РОССИЙСКОЙ ФЕДЕРАЦИИ ИМЕНИ ГЕНЕРАЛА Е.Н. КОЧЕШКОВА;63809562;Региональный общественный фонд поддержки Героев Советского Союза и Героев Российской Федерации имени генерала Е.Е. Кочешкова;260017;улица Кржижановского, дом 17, корпус 1;Россия;Москва;улица Кржижановского;дом 17, корпус 1;генеральный директор;Астапов Александр Сергеевич;;;7721156790;1,0377E+12
312;РЕГИОНАЛЬНАЯ ОБЩЕСТВЕННАЯ ФИЗКУЛЬТУРНО-СПОРТИВНАЯ ОРГАНИЗАЦИЯ «ФЕДЕРАЦИЯ АКРОБАТИЧЕСКОГО РОК-Н-РОЛЛА МОСКВЫ»;63809382;РОФСО «Федерация акробатического рок-н-ролла Москвы»;235386;3-я Фрунзенская улица, дом 5, корпус 1;Россия;Москва;3-я Фрунзенская улица;дом 5, корпус 1;президент;Быстрова Татьяна Николаевна;www.mosfarr.ru;mosfarr@bk.ru;7709443615;1,1078E+12
313;Региональная спортивная общественная организация «Городской физкультурно-спортивный клуб «Ветераны спорта»;63809383;РСОО «Городской физкультурно-спортивный клуб «Ветераны спорта»;259482;1-й Нагатинский проезд, дом 15;Россия;Москва;1-й Нагатинский проезд;дом 15;председатель;Каширина Людмила Павловна;;;7724300918;1,1278E+12
314;РЕГИОНАЛЬНАЯ СПОРТИВНАЯ ОБЩЕСТВЕННАЯ ОРГАНИЗАЦИЯ «ДЕТСКАЯ ПЛЯЖНАЯ ФУТБОЛЬНАЯ ЛИГА»;63809384;РСОО «Детская пляжная футбольная лига»;219853;Врачебный проезд, дом 10;Россия;Москва;Врачебный проезд;дом 10;президент;Железкин Виталий Игоревич;;;7733190475;1,1278E+12
315;РЕГИОНАЛЬНАЯ СПОРТИВНАЯ ОБЩЕСТВЕННАЯ ОРГАНИЗАЦИЯ «МОСКОВСКАЯ ГОРОДСКАЯ ФЕДЕРАЦИЯ БАДМИНТОНА»;63809385;РСОО «Московская городская федерация бадминтона»;219178;Окружной проезд, дом 15, корпус 2;Россия;Москва;Окружной проезд;дом 15, корпус 2;президент Федерации;ГОВОРУН ОЛЕГ МАРКОВИЧ;;;7729433781;1,04775E+12
316;РЕГИОНАЛЬНАЯ СПОРТИВНАЯ ОБЩЕСТВЕННАЯ ОРГАНИЗАЦИЯ «МОСКОВСКАЯ ГОРОДСКАЯ ФЕДЕРАЦИЯ УШУ»;63809386;РСОО «Московская городская федерация ушу»;235765;Энергетическая улицаЯ, дом 16, корпус 1;Россия;Москва;Энергетическая улицаЯ;дом 16, корпус 1;президент;Куприянова Татьяна Викторовна;www.wushu-russ.ru;mike34@bk.ru;7722306865;1,03775E+12
317;Региональная спортивная общественная организация «Московская федерация гандбола»;63809387;РСОО «Московская федерация гандбола»;219206;Милютинский переулок, дом 18;Россия;Москва;Милютинский переулок;дом 18;президент;Синенко Валентин Дмитриевич;www.moshandball.ru;info@moshandball.ru;7708235958;1,0678E+12
318;Региональная спортивная общественная организация «Федерация альпинизма и скалолазания г.Москвы»;63809388;РСОО «Федерация альпинизма и скалолазания г. Москвы»;219176;Милютинский переулок, дом 18;Россия;Москва;Милютинский переулок;дом 18;президент Федерации;Слотюк Алексей Анатольевич;www.faism.ru;mosfais@yandex.ru;7708046020;1,0277E+12
319;Региональная спортивная общественная организация «Федерация велосипедного спорта г.Москвы»;63809389;РСОО «Федерация велосипедного спорта г. Москвы»;219919;Сиреневый бульвар, дом 2;Россия;Москва;Сиреневый бульвар;дом 2;президент;Теренин Александр Васильевич;;;7719213836;1,02774E+12
320;РЕГИОНАЛЬНАЯ СПОРТИВНАЯ ОБЩЕСТВЕННАЯ ОРГАНИЗАЦИЯ «ФЕДЕРАЦИЯ ГРЕБЛИ НА БАЙДАРКАХ И КАНОЭ ГОРОДА МОСКВЫ»;63809390;РСОО «Федерация гребли на байдарках и каноэ города Москвы»;235396;Крылатская улица, дом 2;Россия;Москва;Крылатская улица;дом 2;президент Федерации;Мордвин Николай Юрьевич;www.moscanoe.ru;moscanoe@moscanoe.ru;7731280532;1,04775E+12
321;РЕГИОНАЛЬНАЯ СПОРТИВНАЯ ОБЩЕСТВЕННАЯ ОРГАНИЗАЦИЯ «ФЕДЕРАЦИЯ ГРЕБНОГО СЛАЛОМА ГОРОДА МОСКВЫ»;63809391;РСОО «Федерация гребного слалома города Москвы»;235397;Строительный проезд, дом 7А, корпус 5;Россия;Москва;Строительный проезд;дом 7А, корпус 5;президент;Рагимов Сергей Энверович;www.slalom.ru;slalomrus@yandex.ru;7710476005;1,0778E+12
322;РЕГИОНАЛЬНАЯ СПОРТИВНАЯ ОБЩЕСТВЕННАЯ ОРГАНИЗАЦИЯ «ФЕДЕРАЦИЯ КИОКУСИНКАЙ ГОРОДА МОСКВЫ»;63809392;РСОО «Федерация киокусинкай города Москвы»;235400;улица Алабяна, дом 12, корпус 4;Россия;Москва;улица Алабяна;дом 12, корпус 4;президент;Золотовский Андрей Александрович;;akmkarate@mail.ru;7743004495;1,1078E+12
323;РЕГИОНАЛЬНАЯ СПОРТИВНАЯ ОБЩЕСТВЕННАЯ ОРГАНИЗАЦИЯ «ФЕДЕРАЦИЯ ПРАКТИЧЕСКОЙ СТРЕЛЬБЫ ГОРОДА МОСКВЫ»;63809393;РСОО «Федерация практической стрельбы города Москвы»;235760;Гостиничная улица, дом 7А;Россия;Москва;Гостиничная улица;дом 7А;председатель совета;Рагозин Алексей Владимирович;www.ipsc-msk.ru;mail@ipsc-msk.ru;7715079442;1,1078E+12
324;РЕГИОНАЛЬНАЯ СПОРТИВНАЯ ОБЩЕСТВЕННАЯ ОРГАНИЗАЦИЯ «ФЕДЕРАЦИЯ ПУЛЕВОЙ И СТЕНДОВОЙ СТРЕЛЬБЫ ГОРОДА МОСКВЫ»;63809394;РСОО «Федерация пулевой и стендовой стрельбы города Москвы»;235720;Милютинский переулок, дом 18;Россия;Москва;Милютинский переулок;дом 18;президент;Кокин Александр Анатольевич;www.shooting-moscow.ru;info@shooting-moscow.ru;7708046189;1,03774E+12
325;РЕГИОНАЛЬНАЯ СПОРТИВНАЯ ОБЩЕСТВЕННАЯ ОРГАНИЗАЦИЯ «ФЕДЕРАЦИЯ СКАЛОЛАЗАНИЯ ГОРОДА МОСКВЫ»;63809395;РСОО «Федерация скалолазания города Москвы»;219251;улица Гиляровского дом 47, корпус 5;Россия;Москва;улица Гиляровского дом 47;корпус 5;президент;Чистякова Светлана Геннадьевна;;;7702368119;1,0678E+12
326;Региональная спортивная общественная организация «Федерация тенниса города Москвы»;63809533;РСОО «Федерация тенниса города Москвы»;235770;Милютинский переулок, дом 18, корпус 4;Россия;Москва;Милютинский переулок;дом 18, корпус 4;президент;Пантелеев Евгений Алексеевич;www.mostennis.ru;mostennis@mail.ru;7708228982;1,03775E+12
327;РЕГИОНАЛЬНАЯ СПОРТИВНАЯ ОБЩЕСТВЕННАЯ ОРГАНИЗАЦИЯ «ФЕДЕРАЦИЯ ФЕХТОВАНИЯ ГОРОДА МОСКВЫ»;63809534;РСОО «Федерация фехтования г. Москвы»;235766;микрорайон Северное Чертаново, корпус 806;Россия;Москва;микрорайон Северное Чертаново;корпус 806;президент;Челышев Алексей Валентинович;www.mosfencing.ru;mosfencing@gmail.com;7708102764;1,03774E+12
328;Региональная спортивная общественная организация «Федерация флорбола города Москвы»;63809535;РСОО «Федерация флорбола города Москвы»;235769;Милютинский переулок, дом 18;Россия;Москва;Милютинский переулок;дом 18;президент;Писков Юрий Владимирович;www.mosfloorball.okis.ru;floorball2010@gmail.com;7708107868;1,0377E+12
329;РЕГИОНАЛЬНАЯ СПОРТИВНАЯ ОБЩЕСТВЕННАЯ ОРГАНИЗАЦИЯ ИНВАЛИДОВ «ФЕДЕРАЦИЯ ПУЛЕВОЙ СТРЕЛЬБЫ СРЕДИ ИНВАЛИДОВ»;63809536;РСОО инвалидов «Федерация пулевой стрельбы среди инвалидов»;259036;Казарменный переулок, дом 8, корпус 2;Россия;Москва;Казарменный переулок;дом 8, корпус 2;президент Федерации;Неврена Наталья Евгеньевна;;;7709444400;1,1078E+12
330;Региональная спортивная общественная организация инвалидов «Федерация спорта глухих города Москвы»;63809537;РСОО инвалидов «Федерация спорта глухих города Москвы»;235729;улица Академика Королёва, дом 13, строение 2;Россия;Москва;улица Академика Королёва;дом 13, строение 2;президент;Нестеров Артем Михайлович;www.deafsportmos.ru;deafsportmos@mail.ru;7717162801;1,1278E+12
331;ОБЩЕРОССИЙСКАЯ ОБЩЕСТВЕННАЯ ОРГАНИЗАЦИЯ - РОССИЙСКОЕ ФИЗКУЛЬТУРНО-СПОРТИВНОЕ ОБЩЕСТВО «СПАРТАК»;63809538;РФСО «Спартак»;219599;Озерковская набережная, дом 50, корпус 1;Россия;Москва;Озерковская набережная;дом 50, корпус 1;председатель Российского совета;Слушаев Андрей Александрович;;;7705017542;1,03774E+12
332;Региональная физкультурно-спортивная общественная организация «Московская федерация Кобудо»;63809539;РФСОО «Московская федерация Кобудо»;219233;улица Грина, дом 9;Россия;Москва;улица Грина;дом 9;президент;Кузнецова Ольга Алексеевна;;;7727290464;1,1078E+12
333;Региональная физкультурно-спортивная общественная организация «Московская федерация спортивного боулинга»;63809540;РФСОО «Московская федерация спортивного боулинга»;219200;Крылатская улица, дом 2, корпус 4;Россия;Москва;Крылатская улица;дом 2, корпус 4;президент;Суханова Галина Валентиновна;www.fmsbowling.ru;info@fmsbowling.ru;7731396424;1,1178E+12
334;РЕГИОНАЛЬНАЯ ФИЗКУЛЬТУРНО-СПОРТИВНАЯ ОБЩЕСТВЕННАЯ ОРГАНИЗАЦИЯ «ФЕДЕРАЦИЯ БОРЬБЫ НА ПОЯСАХ»;63809541;РФСОО «Федерация борьбы на поясах» города Москвы;235117;Еропкинский переулок, дом 8;Россия;Москва;Еропкинский переулок;дом 8;президент;Афонин Максим Александрович;;muhacheva_marina@mail.ru;7704269787;1,03775E+12
335;Региональная физкультурно-спортивная общественная организация «Федерация спортивного ориентирования города Москвы»;63809542;РФСОО «Федерация спортивного ориентирования города Москвы»;235733;Федеративный проспект, дом 37Б, корпус 2;Россия;Москва;Федеративный проспект;дом 37Б, корпус 2;президент;Прохоров Александр Михайлович;www.fso.msk.ru;fsomos@mail.ru;7720284824;1,04775E+12
336;РЕГИОНАЛЬНАЯ ФИЗКУЛЬТУРНО-СПОРТИВНАЯ ОБЩЕСТВЕННАЯ ОРГАНИЗАЦИЯ «ФЕДЕРАЦИЯ ЧЕРЛИДИНГА МОСКВЫ»;63809543;РФСОО «Федерация черлидинга Москвы»;235741;Керамический проезд, дом 57, корпус 3;Россия;Москва;Керамический проезд;дом 57, корпус 3;президент;Новикова Валентина Петровна;www.cheerladers.msk.ru;cheer_dance@mail.ru;7713219704;1,0277E+12
337;СПОРТИВНАЯ АВТОНОМНАЯ НЕКОММЕРЧЕСКАЯ ОРГАНИЗАЦИЯ «КУБОК КРЕМЛЯ XXI ВЕК»;63809544;САНО «Кубок Кремля XXI век»;258990;Школьная улица, дом 11/3;Россия;Москва;Школьная улица;дом 11/3;генеральный директор;Шатхин Яков Савельевич;;;7709288590;1,02774E+12
338;КАЗЕННОЕ ПРЕДПРИЯТИЕ ГОРОДА МОСКВЫ СПОРТИВНЫЙ КЛУБ «СЕВЕРО-ЗАПАД»;63809545;Казенное предприятие города Москвы спортивный клуб «Северо-Запад»;220192;Живописная улица, дом 52;Россия;Москва;Живописная улица;дом 52;директор;Валеев Ренат Фоадович;;;7734033370;1,03774E+12
339;РЕГИОНАЛЬНАЯ ОБЩЕСТВЕННАЯ ОРГАНИЗАЦИЯ «СТОЛИЧНАЯ ФЕДЕРАЦИЯ ИНВАЛИДНОГО КОННОГО СПОРТА»;63809546;Столичная Федерация инвалидного конного спорта;257962;Тихая улица, дом 23, корпус 8;Россия;Москва;Тихая улица;дом 23, корпус 8;президент;Морозова Елена Николаевна;;;7723212881;1,1478E+12
340;УПРАВА РАЙОНА КУНЦЕВО ГОРОДА МОСКВЫ;63809547;Управа района Кунцево города Москвы;237409;улица Академика Павлова, дом 42, корпус 2;Россия;Москва;улица Академика Павлова;дом 42, корпус 2;глава управы;Стеблий Виктор Иванович;;;7731267073;1,02773E+12
341;УПРАВА РАЙОНА ХОРОШЕВО-МНЕВНИКИ ГОРОДА МОСКВЫ;63809548;Управа района Хорошево-Мневники города Москвы;219782;улица Народного Ополчения, дом 33, корпус 1;Россия;Москва;улица Народного Ополчения;дом 33, корпус 1;глава управы;Панфилов Сергей Александрович;;;7734252646;1,02773E+12
342;УПРАВА ТАГАНСКОГО РАЙОНА ГОРОДА МОСКВЫ;63809549;Управа Таганского района города Москвы;237431;Воронцовская улица, дом 21;Россия;Москва;Воронцовская улица;дом 21;глава управы;Джиоев Эдуард Джемалович;;;7709397623;1,02771E+12
343;УПРАВЛЕНИЕ ФЕДЕРАЛЬНОЙ СЛУЖБЫ СУДЕБНЫХ ПРИСТАВОВ ПО МОСКВЕ;63809550;Управление Федеральной службы судебных приставов по Москве;259013;улица Бутырский Вал, дом 5;Россия;Москва;улица Бутырский Вал;дом 5;руководитель;Замородских Сергей Григорьевич;;;7704270863;1,0477E+12
344;УЧРЕЖДЕНИЕ «КЛУБ «ДИНАМО-МОСКВА» ПО ХОККЕЮ С МЯЧОМ»;63809551;Учреждение «Клуб «Динамо-Москва» по хоккею с мячом»;219810;Ленинградский проспект, дом 36, строение 21;Россия;Москва;Ленинградский проспект;дом 36, строение 21;генеральный директор;Жданов Сергей Михайлович;;;7714596092;1,05775E+12
345;Учреждение Московской Федерации профсоюзов «Центр физкультуры и спорта»;63809552;Учреждение Московской Федерации профсоюзов «Центр физкультуры и спорта»;259038;Мясницкая улица, дом 15, корпус 1;Россия;Москва;Мясницкая улица;дом 15, корпус 1;Иное должностное лицо;Евстигнеев Виктор Федорович;;;7708047312;1,0277E+12
346;ФЕДЕРАЛЬНОЕ АВТОНОМНОЕ УЧРЕЖДЕНИЕ МИНИСТЕРСТВА ОБОРОНЫ РОССИЙСКОЙ ФЕДЕРАЦИИ «ЦЕНТРАЛЬНЫЙ СПОРТИВНЫЙ КЛУБ АРМИИ»;63809571;Федеральное автономное учреждение Министерства обороны Российской Федерации «Центральный спортивный клуб армии»;260379;Ленинградский проспект, дом 39;Россия;Москва;Ленинградский проспект;дом 39;начальник;Барышев Михаил Николаевич;;;7714317863;1,03771E+12
347;ФЕДЕРАЛЬНАЯ СЛУЖБА БЕЗОПАСНОСТИ РОССИЙСКОЙ ФЕДЕРАЦИИ;63809554;Федеральная служба безопасности Российской Федерации (ФСБ РФ);259815;улица Большая Лубянка, дом 1;Россия;Москва;улица Большая Лубянка;дом 1;директор;Бортников Александр Васильевич;;;7702232171;1,0377E+12
348;ФЕДЕРАЛЬНОЕ ГОСУДАРСТВЕННОЕ БЮДЖЕТНОЕ ОБРАЗОВАТЕЛЬНОЕ УЧРЕЖДЕНИЕ ВЫСШЕГО ОБРАЗОВАНИЯ «МОСКОВСКИЙ ГОСУДАРСТВЕННЫЙ УНИВЕРСИТЕТ ИМЕНИ М.В.ЛОМОНОСОВА»;63809572;Федеральное государственное бюджетное образовательное учреждение высшего образования «Московский государственный университет имени М. В. Ломоносова» (МГУ);259678;улица Ленинские Горы, дом 1;Россия;Москва;улица Ленинские Горы;дом 1;ректор;Садовничий Виктор Антонович;;;7729082090;1,0377E+12
349;ФЕДЕРАЛЬНОЕ ГОСУДАРСТВЕННОЕ УНИТАРНОЕ ПРЕДПРИЯТИЕ «НАУЧНО-ПРОИЗВОДСТВЕННЫЙ ЦЕНТР АВТОМАТИКИ И ПРИБОРОСТРОЕНИЯ ИМЕНИ АКАДЕМИКА Н.А.ПИЛЮГИНА»;63809573;Федеральное государственное унитарное предприятие «Научно-производственный центр автоматики и приборостроения имени академика Н. А. Пилюгина»;261931;улица Введенского, дом 1;Россия;Москва;улица Введенского;дом 1;генеральный директор;Межирицкий Ефим Леонидович;;;7728171283;1,02774E+12
350;ОБЩЕРОССИЙСКАЯ ОБЩЕСТВЕННАЯ ОРГАНИЗАЦИЯ «ФЕДЕРАЦИЯ БОУЛСПОРТА РОССИИ»;63809557;Федерация боччи России;259549;1-я Дубровская улица, дом 14;Россия;Москва;1-я Дубровская улица;дом 14;президент;Иванов Станислав Игоревич;;;7723211334;1,1278E+12
351;Общероссийская общественная организация «Федерация тхэквондо (ИТФ) России»;63809558;Федерация тхэквондо (ИТФ) России;219276;Сиреневый бульвар, дом 2;Россия;Москва;Сиреневый бульвар;дом 2;президент;Сейранов Сергей Германович;;;7719289024;1,1178E+12
352;РЕГИОНАЛЬНАЯ СПОРТИВНАЯ ОБЩЕСТВЕННАЯ ОРГАНИЗАЦИЯ «ФЕДЕРАЦИЯ ФРИСТАЙЛА В ГОРОДЕ МОСКВЕ»;63809559;Федерация фристайла города Москвы;260797;Новинский бульвар, дом 18, корпус 1;Россия;Москва;Новинский бульвар;дом 18, корпус 1;президент;Курашов Алексей Николаевич;;;7704311132;1,1577E+12
353;ФОНД ПОДДЕРЖКИ И РАЗВИТИЯ СПОРТА «ВЕТЕРАНЫ СПОРТА»;63809527;Фонд поддержки и развития спорта «Ветераны спорта»;259658;Новинский бульвар, дом 18, к.1;Россия;Москва;Новинский бульвар;дом 18, к.1;президент;Старостин Александр Павлович;;;7704280477;1,1378E+12
354;Фонд поддержки и развития спортивных единоборств;63809528;Фонд поддержки и развития спортивных единоборств;258988;улица Забелина, дом 1;Россия;Москва;улица Забелина;дом 1;генеральный директор;Василисков Сергей Олегович;;;7709441569;1,0878E+12
355;Фонд развития и поддержки спортсменов и организаций по силовому многоборью «Богатырь»;63809529;Фонд развития и поддержки спортсменов и организаций по силовому многоборью «Богатырь»;260720;Дмитровское шоссе, дом 43, корпус 1;Россия;Москва;Дмитровское шоссе;дом 43, корпус 1;президент;Геращенко Иван Олегович;;;7713430129;1,1278E+12
356;Фонд развития физической культуры и спорта имени Олимпийского чемпиона В.Г. Кондра «Развитие спорта»;63809530;Фонд развития ФКиС имени Олимпийского чемпиона В.Г. Кондра «Развитие спорта»;259481;Тессинский переулок, дом 5, строение 1;Россия;Москва;Тессинский переулок;дом 5, строение 1;президент;Кондра Алексей Владимирович;;;7709472969;1,1378E+12
357;РЕГИОНАЛЬНАЯ ОБЩЕСТВЕННАЯ ОРГАНИЗАЦИЯ «ЦЕНТР ТАНЦЕВАЛЬНОГО СПОРТА ЦСКА»;63809531;Центр танцевального спорта ЦСКА;220008;Ленинский проспект, дом 39;Россия;Москва;Ленинский проспект;дом 39;руководитель юридического лица;Кокоулин Андрей Николаевич;;;7714145100;1,0377E+12
358;НЕГОСУДАРСТВЕННОЕ ОБРАЗОВАТЕЛЬНОЕ УЧРЕЖДЕНИЕ ДОПОЛНИТЕЛЬНОГО ОБРАЗОВАНИЯ «ЦЕНТРАЛЬНЫЙ СПОРТИВНЫЙ СТРЕЛКОВЫЙ КЛУБ ДОСААФ РОССИИ»;63809532;Центральный спортивный стрелковый клуб ДОСААФ России;260611;Волоколамское шоссе, дом 86;Россия;Москва;Волоколамское шоссе;дом 86;генеральный директор;Москалев Сергей Николаевич;;;7733022304;1,03774E+12
